{
"type": "FeatureCollection",
"name": "thirdwave_hotspot_aoi",
"crs": { "type": "name", "properties": { "name": "urn:ogc:def:crs:OGC:1.3:CRS84" } },
"features": [
{ "type": "Feature", "properties": { "name": "Kwame Nkrumah Circle", "area_km2": 1.44 }, "geometry": { "type": "Polygon", "coordinates": [ [ [ -0.209914581391569, 5.563752984850138 ], [ -0.209863396750124, 5.574595780475541 ], [ -0.220685517561316, 5.574647014593689 ], [ -0.220736504296995, 5.563804118711215 ], [ -0.209914581391569, 5.563752984850138 ] ] ] } },
{ "type": "Feature", "properties": { "name": "Kaneshie Market", "area_km2": 1.44 }, "geometry": { "type": "Polygon", "coordinates": [ [ [ -0.229114328779051, 5.561153083709331 ], [ -0.229063519969067, 5.571996057924855 ], [ -0.239885770133353, 5.572046915411903 ], [ -0.23993638111853, 5.561203841628805 ], [ -0.229114328779051, 5.561153083709331 ] ] ] } },
{ "type": "Feature", "properties": { "name": "Alajo", "area_km2": 1.44 }, "geometry": { "type": "Polygon", "coordinates": [ [ [ -0.211514447938984, 5.588252884365644 ], [ -0.211463066161336, 5.599095685839179 ], [ -0.222285651456624, 5.599147114826972 ], [ -0.222336834443055, 5.588304213149987 ], [ -0.211514447938984, 5.588252884365644 ] ] ] } },
{ "type": "Feature", "properties": { "name": "Weija Gbawe / Tetegu", "area_km2": 1.44 }, "geometry": { "type": "Polygon", "coordinates": [ [ [ -0.300813432105599, 5.542853493411515 ], [ -0.300764100774332, 5.55369712685195 ], [ -0.311586666500149, 5.553746504582975 ], [ -0.311635800619922, 5.54290277415144 ], [ -0.300813432105599, 5.542853493411515 ] ] ] } },
{ "type": "Feature", "properties": { "name": "Akosombo dam (stretch)", "area_km2": 2.25 }, "geometry": { "type": "Polygon", "coordinates": [ [ [ 0.434178717912515, 6.071721347165361 ], [ 0.434264705407118, 6.085266261378406 ], [ 0.420733113492156, 6.085352262860062 ], [ 0.42064746318821, 6.071807155835144 ], [ 0.434178717912515, 6.071721347165361 ] ] ] } }
]
}
