{
"type": "FeatureCollection",
"name": "extended_district_assemblies",
"crs": { "type": "name", "properties": { "name": "urn:ogc:def:crs:OGC:1.3:CRS84" } },
"features": [
{ "type": "Feature", "properties": { "name": "Ablekuma Central Municipal", "source": "OCHA COD-AB GHA ADM2", "in_original_pilot": true }, "geometry": { "type": "Polygon", "coordinates": [ [ [ -0.214721679999911, 5.558715820000145 ], [ -0.217590331999872, 5.561279297000056 ], [ -0.220581054999968, 5.564514160000101 ], [ -0.225585937999938, 5.567504883000026 ], [ -0.236022948999903, 5.573303222999982 ], [ -0.240600585999857, 5.575317383000026 ], [ -0.243408202999888, 5.570129395000095 ], [ -0.246093749999943, 5.568115234000174 ], [ -0.250305175999813, 5.56671142600004 ], [ -0.252624511999954, 5.561279297000056 ], [ -0.256225585999914, 5.557495117000144 ], [ -0.263000487999932, 5.556884766000167 ], [ -0.261779784999931, 5.54852294900013 ], [ -0.259277343999941, 5.546875000000114 ], [ -0.255920409999817, 5.544921875000057 ], [ -0.255310058999953, 5.539916992000087 ], [ -0.252990722999868, 5.5379028320001 ], [ -0.251708983999947, 5.534301758000026 ], [ -0.248413085999914, 5.532287598000153 ], [ -0.244995116999917, 5.532104492000087 ], [ -0.241516112999932, 5.532104492000087 ], [ -0.242004394999924, 5.535278319999975 ], [ -0.23352050799997, 5.536682129000042 ], [ -0.234008788999972, 5.542297363000159 ], [ -0.229492187999938, 5.544128418000014 ], [ -0.226684569999975, 5.54327392600004 ], [ -0.222717284999874, 5.542907715000013 ], [ -0.223876952999831, 5.546508789000086 ], [ -0.222717284999874, 5.549682617000144 ], [ -0.220581054999968, 5.553527832000043 ], [ -0.217712401999961, 5.556518554999968 ], [ -0.214721679999911, 5.558715820000145 ] ] ] } },
{ "type": "Feature", "properties": { "name": "Ablekuma North Municipal", "source": "OCHA COD-AB GHA ADM2", "in_original_pilot": true }, "geometry": { "type": "Polygon", "coordinates": [ [ [ -0.215820312999881, 5.603271484000061 ], [ -0.219421386999954, 5.603515625000114 ], [ -0.223876952999831, 5.600280762000068 ], [ -0.230102538999972, 5.595275879000098 ], [ -0.237609862999932, 5.595092773000033 ], [ -0.245178222999868, 5.595520020000151 ], [ -0.247619628999928, 5.603271484000061 ], [ -0.256225585999914, 5.600280762000068 ], [ -0.258300780999946, 5.603698730000076 ], [ -0.259521483999947, 5.60772705100004 ], [ -0.264709472999868, 5.608520508000026 ], [ -0.267517089999899, 5.605895996000129 ], [ -0.268188476999967, 5.603088379000098 ], [ -0.269714354999905, 5.600524902000188 ], [ -0.271118163999972, 5.597900391000167 ], [ -0.273010253999928, 5.595275879000098 ], [ -0.274902343999884, 5.592895508000026 ], [ -0.278808593999884, 5.589721679999968 ], [ -0.281677245999958, 5.5867309570001 ], [ -0.282592772999919, 5.582275391 ], [ -0.281616210999971, 5.578125 ], [ -0.280578612999875, 5.573303222999982 ], [ -0.276184081999929, 5.569885254000098 ], [ -0.275024413999972, 5.567077637000011 ], [ -0.278015136999954, 5.563110352000137 ], [ -0.278076171999942, 5.559875487999989 ], [ -0.276428222999925, 5.556518554999968 ], [ -0.276916503999928, 5.552490234000174 ], [ -0.26928710899989, 5.555908203000115 ], [ -0.263000487999932, 5.556884766000167 ], [ -0.256225585999914, 5.557495117000144 ], [ -0.252624511999954, 5.561279297000056 ], [ -0.250305175999813, 5.56671142600004 ], [ -0.246093749999943, 5.568115234000174 ], [ -0.243408202999888, 5.570129395000095 ], [ -0.240600585999857, 5.575317383000026 ], [ -0.236022948999903, 5.573303222999982 ], [ -0.225585937999938, 5.567504883000026 ], [ -0.220581054999968, 5.564514160000101 ], [ -0.217590331999872, 5.561279297000056 ], [ -0.214721679999911, 5.558715820000145 ], [ -0.21350097699991, 5.563110352000137 ], [ -0.213806151999961, 5.567077637000011 ], [ -0.214721679999911, 5.571289062000062 ], [ -0.211120604999962, 5.572509766000167 ], [ -0.211425780999889, 5.576904297000056 ], [ -0.211975097999868, 5.581909180000025 ], [ -0.211120604999962, 5.587524414000086 ], [ -0.21319580099987, 5.593078612999989 ], [ -0.215576171999942, 5.597900391000167 ], [ -0.215820312999881, 5.603271484000061 ] ] ] } },
{ "type": "Feature", "properties": { "name": "Ablekuma West Municipal", "source": "OCHA COD-AB GHA ADM2", "in_original_pilot": true }, "geometry": { "type": "Polygon", "coordinates": [ [ [ -0.222717284999874, 5.542907715000013 ], [ -0.226684569999975, 5.54327392600004 ], [ -0.229492187999938, 5.544128418000014 ], [ -0.234008788999972, 5.542297363000159 ], [ -0.23352050799997, 5.536682129000042 ], [ -0.242004394999924, 5.535278319999975 ], [ -0.241516112999932, 5.532104492000087 ], [ -0.244995116999917, 5.532104492000087 ], [ -0.248413085999914, 5.532287598000153 ], [ -0.251708983999947, 5.534301758000026 ], [ -0.252990722999868, 5.5379028320001 ], [ -0.255310058999953, 5.539916992000087 ], [ -0.255920409999817, 5.544921875000057 ], [ -0.259277343999941, 5.546875000000114 ], [ -0.261779784999931, 5.54852294900013 ], [ -0.263000487999932, 5.556884766000167 ], [ -0.26928710899989, 5.555908203000115 ], [ -0.276916503999928, 5.552490234000174 ], [ -0.275878905999889, 5.549316406000116 ], [ -0.273315429999968, 5.545898437 ], [ -0.271606444999975, 5.541503906000116 ], [ -0.272094726999967, 5.538513184000124 ], [ -0.273498534999931, 5.535888672000056 ], [ -0.275390624999886, 5.53289794900013 ], [ -0.277893065999933, 5.529907227000137 ], [ -0.277893065999933, 5.524902344000168 ], [ -0.27429199199986, 5.524475097999982 ], [ -0.271301269999924, 5.519287109000174 ], [ -0.26672363299997, 5.520080566 ], [ -0.263610839999899, 5.520690918000071 ], [ -0.258178710999971, 5.521911621000072 ], [ -0.254089354999905, 5.522888184000124 ], [ -0.250488280999946, 5.523681641000167 ], [ -0.246398925999927, 5.524291992000144 ], [ -0.243408202999888, 5.524902344000168 ], [ -0.240112304999968, 5.525512695000145 ], [ -0.236328124999943, 5.526123047 ], [ -0.232910155999946, 5.526916504000042 ], [ -0.229919433999896, 5.527893066 ], [ -0.225891112999932, 5.529113770000095 ], [ -0.220581054999968, 5.530517578000058 ], [ -0.218017577999944, 5.534912109000174 ], [ -0.218505858999947, 5.539489746000129 ], [ -0.222106933999839, 5.539916992000087 ], [ -0.222717284999874, 5.542907715000013 ] ] ] } },
{ "type": "Feature", "properties": { "name": "Accra Metropolis", "source": "OCHA COD-AB GHA ADM2", "in_original_pilot": true }, "geometry": { "type": "Polygon", "coordinates": [ [ [ -0.197021483999947, 5.544921875000057 ], [ -0.200622558999896, 5.550109863000159 ], [ -0.201721190999933, 5.554870605000076 ], [ -0.203979491999917, 5.55828857400013 ], [ -0.206787108999947, 5.557495117000144 ], [ -0.210693358999947, 5.557922363000159 ], [ -0.214721679999911, 5.558715820000145 ], [ -0.217712401999961, 5.556518554999968 ], [ -0.220581054999968, 5.553527832000043 ], [ -0.222717284999874, 5.549682617000144 ], [ -0.223876952999831, 5.546508789000086 ], [ -0.222717284999874, 5.542907715000013 ], [ -0.222106933999839, 5.539916992000087 ], [ -0.218505858999947, 5.539489746000129 ], [ -0.218017577999944, 5.534912109000174 ], [ -0.220581054999968, 5.530517578000058 ], [ -0.215576171999942, 5.531677246000129 ], [ -0.212280272999976, 5.532470703000115 ], [ -0.208923339999956, 5.533508300999983 ], [ -0.208496093999884, 5.53729248000019 ], [ -0.205627440999933, 5.540283203000115 ], [ -0.201904296999885, 5.542297363000159 ], [ -0.197021483999947, 5.544921875000057 ] ] ] } },
{ "type": "Feature", "properties": { "name": "Ashaiman Municipal", "source": "OCHA COD-AB GHA ADM2", "in_original_pilot": false }, "geometry": { "type": "Polygon", "coordinates": [ [ [ -0.016479491999917, 5.685485840000126 ], [ -0.013488769999924, 5.689086913999972 ], [ -0.013000487999932, 5.692321777000018 ], [ -0.013427733999833, 5.696289062000119 ], [ -0.014221190999933, 5.701721191000047 ], [ -0.015075683999953, 5.708679199000073 ], [ -0.014709472999925, 5.713073730000133 ], [ -0.013916015999882, 5.718078613000102 ], [ -0.018615722999925, 5.719116211000141 ], [ -0.023315429999911, 5.719116211000141 ], [ -0.031188964999899, 5.719299316000104 ], [ -0.037109374999943, 5.720275879000155 ], [ -0.039794921999828, 5.722290039000029 ], [ -0.043090819999861, 5.723083496000015 ], [ -0.046081542999957, 5.723083496000015 ], [ -0.049377440999876, 5.722290039000029 ], [ -0.051025390999939, 5.718505859000061 ], [ -0.053710937999881, 5.71569824200003 ], [ -0.055908202999888, 5.713684081999986 ], [ -0.056701659999817, 5.710510254000098 ], [ -0.055114745999958, 5.70788574200003 ], [ -0.052490233999947, 5.704284668000184 ], [ -0.053222655999889, 5.700927734000061 ], [ -0.058593749999943, 5.700500488000046 ], [ -0.059814452999888, 5.69671630900001 ], [ -0.056091308999953, 5.697509766000053 ], [ -0.049804687999881, 5.689086913999972 ], [ -0.048828124999943, 5.686096191000104 ], [ -0.045776366999917, 5.68249511700003 ], [ -0.042175292999957, 5.678100586000141 ], [ -0.0324096679999, 5.679504395000038 ], [ -0.029479979999905, 5.680725098000039 ], [ -0.024719237999818, 5.682678223000096 ], [ -0.016479491999917, 5.685485840000126 ] ] ] } },
{ "type": "Feature", "properties": { "name": "Ayawaso Central Municipal", "source": "OCHA COD-AB GHA ADM2", "in_original_pilot": true }, "geometry": { "type": "Polygon", "coordinates": [ [ [ -0.199707030999889, 5.575073241999974 ], [ -0.198608397999976, 5.578491211000085 ], [ -0.197692870999958, 5.582702637000182 ], [ -0.199890136999954, 5.586303711000085 ], [ -0.203308104999962, 5.588073730000076 ], [ -0.207824706999929, 5.580505371000129 ], [ -0.211425780999889, 5.576904297000056 ], [ -0.211120604999962, 5.572509766000167 ], [ -0.205505370999958, 5.57391357400013 ], [ -0.199707030999889, 5.575073241999974 ] ] ] } },
{ "type": "Feature", "properties": { "name": "Ga South Municipal", "source": "OCHA COD-AB GHA ADM2", "in_original_pilot": false }, "geometry": { "type": "Polygon", "coordinates": [ [ [ -0.35711669899996, 5.60968017600004 ], [ -0.357421874999886, 5.613098145000151 ], [ -0.35711669899996, 5.617126465000069 ], [ -0.354797362999932, 5.621093750000114 ], [ -0.356323241999974, 5.625488281 ], [ -0.357177733999947, 5.629882812000062 ], [ -0.35968017599987, 5.633483887000068 ], [ -0.359375, 5.637329101999967 ], [ -0.356018065999933, 5.640686034999987 ], [ -0.353515624999829, 5.644897461000085 ], [ -0.353393554999855, 5.648071288999972 ], [ -0.352111815999933, 5.651672363000046 ], [ -0.349792479999962, 5.654907227000024 ], [ -0.348876952999888, 5.658081055000082 ], [ -0.348388671999885, 5.66149902300009 ], [ -0.350891112999932, 5.665100098000039 ], [ -0.35461425799997, 5.667297363000046 ], [ -0.358093261999954, 5.669494629000098 ], [ -0.362609862999932, 5.667480469000111 ], [ -0.367126464999956, 5.669921875000114 ], [ -0.369201659999874, 5.674926758000083 ], [ -0.368713378999814, 5.678894043000128 ], [ -0.370910644999867, 5.682128906000173 ], [ -0.374816894999867, 5.683471680000082 ], [ -0.378601073999903, 5.683715820000032 ], [ -0.382507323999903, 5.684692383000083 ], [ -0.386413573999903, 5.684875488000046 ], [ -0.390197753999928, 5.684326172000112 ], [ -0.393920897999976, 5.687316894999981 ], [ -0.398315429999855, 5.687072754000155 ], [ -0.401916503999928, 5.689086913999972 ], [ -0.401306151999961, 5.692504883000083 ], [ -0.403503417999957, 5.69671630900001 ], [ -0.405822753999928, 5.701110840000126 ], [ -0.406799315999876, 5.706481934000067 ], [ -0.410217284999874, 5.709289551000097 ], [ -0.41320800799997, 5.712097168000128 ], [ -0.416809081999872, 5.715515137000068 ], [ -0.419189452999831, 5.719909668000128 ], [ -0.421508788999972, 5.723327637000068 ], [ -0.424316405999946, 5.726318359000061 ], [ -0.42749023399989, 5.727478027000075 ], [ -0.429626464999899, 5.730285645000038 ], [ -0.430603026999961, 5.734313965000126 ], [ -0.432983397999919, 5.737487793000184 ], [ -0.434692382999913, 5.739929199000017 ], [ -0.43920898399989, 5.740112305000082 ], [ -0.442810058999953, 5.739929199000017 ], [ -0.447509765999939, 5.739685059000067 ], [ -0.452392577999944, 5.740295410000044 ], [ -0.457275390999882, 5.740905762000068 ], [ -0.463012694999975, 5.741699219000111 ], [ -0.466674804999911, 5.742126465000126 ], [ -0.471923827999888, 5.743713379000155 ], [ -0.475524901999961, 5.744506836000141 ], [ -0.480712890999882, 5.746520996000186 ], [ -0.482910155999946, 5.749694824000073 ], [ -0.486389159999874, 5.749328613000046 ], [ -0.489318847999868, 5.747680664000029 ], [ -0.493408202999944, 5.747314453 ], [ -0.497680663999859, 5.745300293000184 ], [ -0.501708983999833, 5.742126465000126 ], [ -0.504699706999929, 5.739685059000067 ], [ -0.50891113299997, 5.736694335999971 ], [ -0.511291503999814, 5.734313965000126 ], [ -0.50958251999981, 5.731689453000058 ], [ -0.510986327999944, 5.725891113000046 ], [ -0.509399413999915, 5.721313477000024 ], [ -0.508789062999881, 5.714904785000044 ], [ -0.511108397999919, 5.710510254000098 ], [ -0.515075683999839, 5.707702637000068 ], [ -0.520202636999954, 5.704284668000184 ], [ -0.519775390999939, 5.701110840000126 ], [ -0.51922607399996, 5.697875977000081 ], [ -0.519592284999874, 5.694885254000155 ], [ -0.518615722999925, 5.691528320000032 ], [ -0.517211913999915, 5.687316894999981 ], [ -0.512390136999954, 5.684875488000046 ], [ -0.509216308999953, 5.683105469000054 ], [ -0.507019042999957, 5.680114746000129 ], [ -0.50500488299997, 5.676330566000047 ], [ -0.50360107399996, 5.672119141 ], [ -0.500183104999962, 5.668884277000075 ], [ -0.498413085999971, 5.664489746000186 ], [ -0.49578857399996, 5.660095215000069 ], [ -0.494323729999905, 5.655517578000172 ], [ -0.496398925999927, 5.651672363000046 ], [ -0.497009276999904, 5.647521973000039 ], [ -0.494628905999946, 5.644714355000076 ], [ -0.490112304999968, 5.645507812000062 ], [ -0.483276366999974, 5.646911621000129 ], [ -0.4796752929999, 5.646484375000114 ], [ -0.476501464999956, 5.6453247070001 ], [ -0.473999022999919, 5.643493652000018 ], [ -0.470581054999911, 5.64147949200003 ], [ -0.465881347999925, 5.639526367000144 ], [ -0.462097167999957, 5.638305664000143 ], [ -0.457824706999872, 5.636718750000114 ], [ -0.455810546999942, 5.634704590000069 ], [ -0.452392577999944, 5.631896973000039 ], [ -0.447509765999939, 5.631286621000129 ], [ -0.444702147999976, 5.628723145000151 ], [ -0.441589354999905, 5.626281738000046 ], [ -0.437805175999927, 5.623474121000186 ], [ -0.433715819999861, 5.621887207000157 ], [ -0.430908202999888, 5.620727539000086 ], [ -0.428100585999971, 5.617675781 ], [ -0.426818847999925, 5.614074707000157 ], [ -0.426086425999927, 5.610717773000033 ], [ -0.427612304999968, 5.605102539000143 ], [ -0.418518065999876, 5.607482910000158 ], [ -0.41192626999981, 5.608276366999974 ], [ -0.397521972999925, 5.61267089800009 ], [ -0.389709472999925, 5.60711669900013 ], [ -0.375427245999958, 5.60711669900013 ], [ -0.369995116999974, 5.606689453000172 ], [ -0.366699218999941, 5.60491943400018 ], [ -0.359497069999918, 5.606689453000172 ], [ -0.35711669899996, 5.60968017600004 ] ] ] } },
{ "type": "Feature", "properties": { "name": "Korle Klottey Municipal", "source": "OCHA COD-AB GHA ADM2", "in_original_pilot": true }, "geometry": { "type": "Polygon", "coordinates": [ [ [ -0.190307616999974, 5.572082520000151 ], [ -0.195129394999867, 5.575683594000054 ], [ -0.199707030999889, 5.575073241999974 ], [ -0.205505370999958, 5.57391357400013 ], [ -0.211120604999962, 5.572509766000167 ], [ -0.214721679999911, 5.571289062000062 ], [ -0.213806151999961, 5.567077637000011 ], [ -0.21350097699991, 5.563110352000137 ], [ -0.214721679999911, 5.558715820000145 ], [ -0.210693358999947, 5.557922363000159 ], [ -0.206787108999947, 5.557495117000144 ], [ -0.203979491999917, 5.55828857400013 ], [ -0.201721190999933, 5.554870605000076 ], [ -0.200622558999896, 5.550109863000159 ], [ -0.197021483999947, 5.544921875000057 ], [ -0.192077636999954, 5.544494629000042 ], [ -0.189208983999947, 5.54510498000019 ], [ -0.186279296999828, 5.545715332000043 ], [ -0.182312011999954, 5.546875000000114 ], [ -0.179199218999941, 5.548706054999968 ], [ -0.175109862999818, 5.549682617000144 ], [ -0.175292968999941, 5.552673340000069 ], [ -0.177307128999871, 5.55609130900018 ], [ -0.177978515999939, 5.559875487999989 ], [ -0.177490233999947, 5.563903809000124 ], [ -0.190307616999974, 5.572082520000151 ] ] ] } },
{ "type": "Feature", "properties": { "name": "Tema Metropolitan", "source": "OCHA COD-AB GHA ADM2", "in_original_pilot": false }, "geometry": { "type": "Polygon", "coordinates": [ [ [ 0.031921387000182, 5.655883788999972 ], [ 0.030273437000062, 5.662109375000114 ], [ 0.029296875000114, 5.666076660000044 ], [ 0.026672362999989, 5.668884277000075 ], [ 0.022705078000115, 5.672119141 ], [ 0.0125122070001, 5.667724609000061 ], [ 0.003906250000057, 5.664306641000053 ], [ -0.003723144999867, 5.679870605000133 ], [ -0.006408690999933, 5.683105469000054 ], [ -0.008728026999904, 5.686523437000062 ], [ -0.011596679999855, 5.68688964800009 ], [ -0.016479491999917, 5.685485840000126 ], [ -0.024719237999818, 5.682678223000096 ], [ -0.029479979999905, 5.680725098000039 ], [ -0.0324096679999, 5.679504395000038 ], [ -0.031127929999911, 5.666503906 ], [ -0.032714843999941, 5.65368652300009 ], [ -0.039428710999971, 5.645690918000128 ], [ -0.045104979999962, 5.638671875000171 ], [ -0.045410155999832, 5.626281738000046 ], [ -0.044616698999903, 5.617309570000032 ], [ -0.046386718999884, 5.610473633000083 ], [ -0.041503905999832, 5.611877441000047 ], [ -0.037292479999962, 5.612487793000128 ], [ -0.033691405999946, 5.613098145000151 ], [ -0.030029296999885, 5.613281250000114 ], [ -0.025512694999918, 5.614074707000157 ], [ -0.020202636999954, 5.615905762000011 ], [ -0.015624999999886, 5.617309570000032 ], [ -0.013427733999833, 5.619689941000047 ], [ -0.006591796999885, 5.622070312000119 ], [ -0.0031127929999, 5.623291016 ], [ 0.000122070000145, 5.624694824000187 ], [ 0.005310059000124, 5.625488281 ], [ 0.010681152000188, 5.631713867000144 ], [ 0.017272949000187, 5.642272949000017 ], [ 0.021118164000086, 5.643676758000083 ], [ 0.023925781000116, 5.644287109000061 ], [ 0.027099609, 5.64587402300009 ], [ 0.028076172000056, 5.650878906000059 ], [ 0.029907227000137, 5.653320312000062 ], [ 0.031921387000182, 5.655883788999972 ] ] ] } },
{ "type": "Feature", "properties": { "name": "Weija Gbawe Municipal", "source": "OCHA COD-AB GHA ADM2", "in_original_pilot": true }, "geometry": { "type": "Polygon", "coordinates": [ [ [ -0.359497069999918, 5.606689453000172 ], [ -0.366699218999941, 5.60491943400018 ], [ -0.369995116999974, 5.606689453000172 ], [ -0.375427245999958, 5.60711669900013 ], [ -0.389709472999925, 5.60711669900013 ], [ -0.397521972999925, 5.61267089800009 ], [ -0.41192626999981, 5.608276366999974 ], [ -0.418518065999876, 5.607482910000158 ], [ -0.427612304999968, 5.605102539000143 ], [ -0.424987792999957, 5.602294922000056 ], [ -0.422424315999876, 5.59930419900013 ], [ -0.419128417999843, 5.595703125000114 ], [ -0.417297362999932, 5.592529297000056 ], [ -0.415710448999903, 5.5886840820001 ], [ -0.41320800799997, 5.586486816000047 ], [ -0.409912108999947, 5.582885742000144 ], [ -0.407775878999928, 5.580322266000167 ], [ -0.406127929999911, 5.57647705100004 ], [ -0.405395507999913, 5.572326660000101 ], [ -0.402709960999914, 5.569702148000033 ], [ -0.400817870999958, 5.566894531000173 ], [ -0.403015136999954, 5.5625 ], [ -0.406921386999954, 5.559509277000188 ], [ -0.410278319999975, 5.556518554999968 ], [ -0.412109374999943, 5.552124022999976 ], [ -0.413085937999938, 5.54827880900018 ], [ -0.414428710999914, 5.544494629000042 ], [ -0.414794921999942, 5.541320800999983 ], [ -0.415405272999976, 5.5379028320001 ], [ -0.414611815999876, 5.532470703000115 ], [ -0.41320800799997, 5.527709961000028 ], [ -0.412597655999946, 5.524291992000144 ], [ -0.410278319999975, 5.52172851600011 ], [ -0.407775878999928, 5.518127441000161 ], [ -0.405395507999913, 5.514526367000087 ], [ -0.404724120999958, 5.511291504000042 ], [ -0.404113769999924, 5.507873535000101 ], [ -0.404296874999943, 5.50408935500019 ], [ -0.404174804999968, 5.501098633000026 ], [ -0.403320312999881, 5.496887207000043 ], [ -0.403686522999976, 5.492492675999983 ], [ -0.402404784999817, 5.489685059000124 ], [ -0.401123046999885, 5.486328125 ], [ -0.402709960999914, 5.482727051000154 ], [ -0.405578612999875, 5.479492187000176 ], [ -0.406311034999874, 5.474670410000101 ], [ -0.405883788999972, 5.469726562000119 ], [ -0.399108886999954, 5.474914551000154 ], [ -0.389404296999885, 5.47869873000019 ], [ -0.38000488299997, 5.485900879000042 ], [ -0.371582030999946, 5.488891602000137 ], [ -0.36700439499981, 5.493713378999985 ], [ -0.358398437999881, 5.497680664000086 ], [ -0.352478026999961, 5.497924805000139 ], [ -0.344482421999885, 5.502075195000145 ], [ -0.337402343999941, 5.503479004000042 ], [ -0.323181151999847, 5.506896973000153 ], [ -0.306884765999882, 5.511291504000042 ], [ -0.291687011999898, 5.514892578000115 ], [ -0.281616210999971, 5.51672363299997 ], [ -0.271301269999924, 5.519287109000174 ], [ -0.27429199199986, 5.524475097999982 ], [ -0.277893065999933, 5.524902344000168 ], [ -0.277893065999933, 5.529907227000137 ], [ -0.275390624999886, 5.53289794900013 ], [ -0.273498534999931, 5.535888672000056 ], [ -0.272094726999967, 5.538513184000124 ], [ -0.271606444999975, 5.541503906000116 ], [ -0.273315429999968, 5.545898437 ], [ -0.275878905999889, 5.549316406000116 ], [ -0.276916503999928, 5.552490234000174 ], [ -0.276428222999925, 5.556518554999968 ], [ -0.278076171999942, 5.559875487999989 ], [ -0.278015136999954, 5.563110352000137 ], [ -0.275024413999972, 5.567077637000011 ], [ -0.276184081999929, 5.569885254000098 ], [ -0.280578612999875, 5.573303222999982 ], [ -0.281616210999971, 5.578125 ], [ -0.284484862999875, 5.579101562000062 ], [ -0.285583495999845, 5.585693359 ], [ -0.290588378999871, 5.585510254000042 ], [ -0.294799804999968, 5.585510254000042 ], [ -0.299804687999938, 5.5867309570001 ], [ -0.299926757999913, 5.591125488000159 ], [ -0.302917479999905, 5.591308594 ], [ -0.303710937999938, 5.597717285000101 ], [ -0.306823729999905, 5.601074219000054 ], [ -0.311401366999974, 5.602722168000071 ], [ -0.316406249999886, 5.602111816000047 ], [ -0.32000732399996, 5.601074219000054 ], [ -0.327209472999925, 5.599670410000158 ], [ -0.333312987999875, 5.601501465000069 ], [ -0.336486815999933, 5.602722168000071 ], [ -0.339294433999896, 5.599487305000025 ], [ -0.343017577999944, 5.601074219000054 ], [ -0.3449096679999, 5.597473144999981 ], [ -0.343994140999939, 5.594482422000056 ], [ -0.345581054999968, 5.591918944999975 ], [ -0.347717284999931, 5.589111328000115 ], [ -0.344604491999974, 5.588073730000076 ], [ -0.346679687999881, 5.585327148000033 ], [ -0.350585937999881, 5.583923340000013 ], [ -0.353881835999914, 5.58612060500019 ], [ -0.356384276999961, 5.588073730000076 ], [ -0.355224608999833, 5.592285156000173 ], [ -0.362792968999941, 5.597473144999981 ], [ -0.361328124999886, 5.600097656000173 ], [ -0.359497069999918, 5.606689453000172 ] ] ] } }
]
}
