{
"type": "FeatureCollection",
"name": "lower_volta_district_assemblies",
"crs": { "type": "name", "properties": { "name": "urn:ogc:def:crs:OGC:1.3:CRS84" } },
"features": [
{ "type": "Feature", "properties": { "name": "Ada East", "region": "Greater Accra", "source": "OCHA COD-AB GHA ADM2", "in_original_pilot": false }, "geometry": { "type": "Polygon", "coordinates": [ [ [ 0.520690918000184, 5.980712891 ], [ 0.516723633000083, 5.982299805000025 ], [ 0.513305663999972, 5.98327636700003 ], [ 0.510498047000112, 5.981323242000144 ], [ 0.506286621000186, 5.981079102000024 ], [ 0.50329589800009, 5.980529785000158 ], [ 0.498474121000015, 5.980712891 ], [ 0.497497559000067, 5.977478027000075 ], [ 0.497680664000029, 5.971313476999967 ], [ 0.498474121000015, 5.96710205100004 ], [ 0.502319336000141, 5.967529297000056 ], [ 0.50671386700003, 5.965270996000186 ], [ 0.507080078000058, 5.960876465000069 ], [ 0.503906250000171, 5.958129883000026 ], [ 0.497314453000172, 5.958496094000054 ], [ 0.499511719000054, 5.952270508000083 ], [ 0.500122070000032, 5.947692871000129 ], [ 0.499328613000046, 5.944702148000033 ], [ 0.499694824000017, 5.93890380900018 ], [ 0.502685547000112, 5.935913086000085 ], [ 0.501708984000061, 5.932678223000039 ], [ 0.49890136700003, 5.93109130900018 ], [ 0.499877930000082, 5.928100586000085 ], [ 0.498107909999987, 5.924682617000144 ], [ 0.497497559000067, 5.921081543000071 ], [ 0.494873047000169, 5.919494629000042 ], [ 0.494506836000141, 5.916320800999983 ], [ 0.497314453000172, 5.912719727000137 ], [ 0.497070312000119, 5.908325195000145 ], [ 0.496520996000186, 5.904479980000019 ], [ 0.494506836000141, 5.893920897999976 ], [ 0.496520996000186, 5.891723633000026 ], [ 0.497680664000029, 5.888488770000151 ], [ 0.495727539000143, 5.885498047000056 ], [ 0.491882324000073, 5.884704590000013 ], [ 0.490295410000044, 5.880920410000101 ], [ 0.486511230000076, 5.877075194999975 ], [ 0.485900879000098, 5.873474121000129 ], [ 0.484497070000032, 5.869506836000028 ], [ 0.484680176000097, 5.866088867000144 ], [ 0.481689453, 5.862487793000071 ], [ 0.484924316000047, 5.858093262000182 ], [ 0.484680176000097, 5.853515625000057 ], [ 0.484130859000061, 5.850524902000132 ], [ 0.480102538999972, 5.84930419900013 ], [ 0.481872559000067, 5.846679687 ], [ 0.484924316000047, 5.843872070000145 ], [ 0.489685059000067, 5.843078613000159 ], [ 0.489685059000067, 5.838684082000043 ], [ 0.483703613000046, 5.834472656000116 ], [ 0.472900391000053, 5.832885742000087 ], [ 0.46429443400001, 5.819885254000042 ], [ 0.464904784999987, 5.816894531000116 ], [ 0.464477538999972, 5.813903809000124 ], [ 0.465515137000068, 5.808715820000089 ], [ 0.460510254000098, 5.806701660000044 ], [ 0.457092284999987, 5.805297852000081 ], [ 0.458923340000069, 5.801513672000169 ], [ 0.456115723000039, 5.79992675800014 ], [ 0.458679199000017, 5.797302246000072 ], [ 0.46228027300009, 5.796325684000067 ], [ 0.461120605000076, 5.792297363000102 ], [ 0.458496094000054, 5.789672852000081 ], [ 0.462890625000171, 5.788513184000067 ], [ 0.467712402000018, 5.787902832000043 ], [ 0.471679687000119, 5.787902832000043 ], [ 0.475097656000059, 5.787475586000028 ], [ 0.479492187000119, 5.787109375 ], [ 0.482482910000044, 5.786926270000038 ], [ 0.489318848000039, 5.786499023000147 ], [ 0.494873047000169, 5.786315918000184 ], [ 0.499877930000082, 5.785705566000104 ], [ 0.503906250000171, 5.785705566000104 ], [ 0.507690430000082, 5.785522460999971 ], [ 0.512695312000119, 5.784729004000155 ], [ 0.516296387000068, 5.784729004000155 ], [ 0.520874023000147, 5.783874512000125 ], [ 0.525512695000089, 5.782897949000073 ], [ 0.528930663999972, 5.782714844000111 ], [ 0.536315918000128, 5.782104492000087 ], [ 0.541320801000097, 5.781677246000072 ], [ 0.551330566000104, 5.781127930000082 ], [ 0.554504395000038, 5.781127930000082 ], [ 0.55969238300014, 5.780700684000067 ], [ 0.56469726600011, 5.780090332000043 ], [ 0.571472168000014, 5.779479980000133 ], [ 0.575683594000168, 5.779113770000038 ], [ 0.579711914000029, 5.778686523000147 ], [ 0.585693359000118, 5.778076172000169 ], [ 0.588684082000043, 5.777526855000133 ], [ 0.595092773000147, 5.777282715000183 ], [ 0.599121094000111, 5.776672363000102 ], [ 0.605895996000072, 5.776306152000075 ], [ 0.619689941000161, 5.774719238000046 ], [ 0.623474121000072, 5.774108887000125 ], [ 0.626525878999985, 5.774108887000125 ], [ 0.633300781000116, 5.773071289000029 ], [ 0.637329102000081, 5.772705078000058 ], [ 0.641906738000102, 5.772277832000043 ], [ 0.645874023000033, 5.771301270000038 ], [ 0.650878906000116, 5.770324706999986 ], [ 0.656311035000101, 5.769714355000133 ], [ 0.661315918000014, 5.769104004000155 ], [ 0.666320801000154, 5.76892089800009 ], [ 0.67010498000019, 5.768493652000132 ], [ 0.674682617000144, 5.76867675799997 ], [ 0.67791748000019, 5.769287109000118 ], [ 0.679687500000057, 5.771728516000053 ], [ 0.676513672, 5.776123047000112 ], [ 0.680725098000153, 5.775329590000126 ], [ 0.685485840000069, 5.774902344000111 ], [ 0.6875, 5.777099609000118 ], [ 0.685913086000028, 5.780517578000058 ], [ 0.684692383000026, 5.783691406000116 ], [ 0.682495117000144, 5.787719727000081 ], [ 0.680908203000115, 5.790893555000139 ], [ 0.678710937, 5.794128418000184 ], [ 0.673706054999968, 5.79711914100011 ], [ 0.670898437, 5.798278809000124 ], [ 0.653503418000071, 5.804504395000095 ], [ 0.651672363000159, 5.80688476600011 ], [ 0.654113770000095, 5.82049560500019 ], [ 0.654296875000057, 5.824707031000116 ], [ 0.654113770000095, 5.827697754000042 ], [ 0.652526855000133, 5.8308715820001 ], [ 0.649475098000153, 5.834472656000116 ], [ 0.646301270000095, 5.837280272999976 ], [ 0.643310547, 5.840515137000125 ], [ 0.630126953000058, 5.836486816000161 ], [ 0.622680664000086, 5.834289550999983 ], [ 0.620300293000014, 5.836120605000133 ], [ 0.620300293000014, 5.839904785000101 ], [ 0.619323730000133, 5.843505859000118 ], [ 0.619323730000133, 5.848876953000115 ], [ 0.619506836000028, 5.852905272999976 ], [ 0.62127685500019, 5.856323242000087 ], [ 0.62329101600011, 5.858703613000102 ], [ 0.625305176000154, 5.862121582000043 ], [ 0.629699707000043, 5.863891602000137 ], [ 0.630126953000058, 5.867492675999983 ], [ 0.626708984000118, 5.867492675999983 ], [ 0.623718262000125, 5.866088867000144 ], [ 0.619506836000028, 5.865295410000101 ], [ 0.61547851600011, 5.864685059000124 ], [ 0.613281250000057, 5.866699219000168 ], [ 0.612670897999976, 5.869873047000056 ], [ 0.612487793000014, 5.872924805000139 ], [ 0.614074707000043, 5.875305175999983 ], [ 0.611328125, 5.876098633000026 ], [ 0.607116699000073, 5.877319336000028 ], [ 0.606079102000137, 5.879882812000062 ], [ 0.605285645000095, 5.884094238000159 ], [ 0.603515625, 5.886291504000042 ], [ 0.601684570000145, 5.888671875000114 ], [ 0.599304199000073, 5.890686035000101 ], [ 0.594909668000184, 5.89031982400013 ], [ 0.584899902000132, 5.895080566000047 ], [ 0.575683594000168, 5.901672362999989 ], [ 0.577880859000118, 5.905700684000124 ], [ 0.581298828000058, 5.910888672000056 ], [ 0.583923340000126, 5.912292480000019 ], [ 0.587280273000147, 5.914306641000167 ], [ 0.587097168000184, 5.91827392600004 ], [ 0.586486816000161, 5.921508789000086 ], [ 0.583923340000126, 5.924072266 ], [ 0.582702637000125, 5.926696777000188 ], [ 0.579101562000176, 5.929321289000086 ], [ 0.576721191000104, 5.932128906000116 ], [ 0.57250976600011, 5.931274414000143 ], [ 0.568115234000118, 5.934082031000173 ], [ 0.564270020000095, 5.93890380900018 ], [ 0.560485840000183, 5.939880371000129 ], [ 0.557678223000096, 5.935119629000042 ], [ 0.556091309000067, 5.929687500000114 ], [ 0.553710937000119, 5.926513672000056 ], [ 0.551696777000075, 5.921508789000086 ], [ 0.548889160000044, 5.924499512000182 ], [ 0.551086426000154, 5.9285278320001 ], [ 0.549682617000087, 5.931701660000158 ], [ 0.548889160000044, 5.934692383000026 ], [ 0.546691895000038, 5.939086914000143 ], [ 0.545288085999971, 5.943115234000174 ], [ 0.542297363000102, 5.94891357400013 ], [ 0.538696289000029, 5.951904297000056 ], [ 0.534118652000075, 5.953308105000019 ], [ 0.528320312000119, 5.953125 ], [ 0.524719238000046, 5.954895020000151 ], [ 0.52429199200003, 5.958923340000069 ], [ 0.524475098000096, 5.962890625000114 ], [ 0.524719238000046, 5.967895508000083 ], [ 0.524902344000111, 5.9714965820001 ], [ 0.525329590000126, 5.977905273000033 ], [ 0.520690918000184, 5.980712891 ] ] ] } },
{ "type": "Feature", "properties": { "name": "Ada West", "region": "Greater Accra", "source": "OCHA COD-AB GHA ADM2", "in_original_pilot": false }, "geometry": { "type": "Polygon", "coordinates": [ [ [ 0.499084473000096, 5.99108886700003 ], [ 0.496520996000186, 5.992492676000097 ], [ 0.492309570000032, 5.993896484000061 ], [ 0.490722656, 5.988708496000129 ], [ 0.490112305000082, 5.984313965000069 ], [ 0.491882324000073, 5.980712891 ], [ 0.489318848000039, 5.978698730000076 ], [ 0.485900879000098, 5.976928711000085 ], [ 0.48547363300014, 5.981079102000024 ], [ 0.485290527000075, 5.985107422000056 ], [ 0.48571777300009, 5.98992919900013 ], [ 0.481506348000039, 5.991882324000187 ], [ 0.477294922000112, 5.993103027000018 ], [ 0.467529297000056, 5.998291016000053 ], [ 0.458679199000017, 5.998718262000011 ], [ 0.455322266, 5.999877930000082 ], [ 0.452514648000033, 6.001281738000046 ], [ 0.448120116999974, 5.999328612999989 ], [ 0.444885254000098, 5.996704102000024 ], [ 0.441528320000032, 5.99548339800009 ], [ 0.440673828000172, 5.991271973000039 ], [ 0.441894531, 5.986511230000076 ], [ 0.440917969000054, 5.983093262000068 ], [ 0.438720703000115, 5.981079102000024 ], [ 0.435729980000019, 5.976318359 ], [ 0.429504394999981, 5.973693848000039 ], [ 0.425292969000054, 5.971923828000115 ], [ 0.421875000000114, 5.971130371000129 ], [ 0.417480469000054, 5.969909668000071 ], [ 0.413085937000062, 5.967895508000083 ], [ 0.407897949000187, 5.966125488000159 ], [ 0.403686523000033, 5.965087891 ], [ 0.398925781000173, 5.962524414000086 ], [ 0.3953247070001, 5.961120605000019 ], [ 0.391113281000173, 5.960327148000033 ], [ 0.387695312000062, 5.960876465000069 ], [ 0.384094237999989, 5.961303711000085 ], [ 0.377502441000047, 5.961120605000019 ], [ 0.37469482400013, 5.960876465000069 ], [ 0.371276855000076, 5.960693359000061 ], [ 0.365295410000158, 5.960083008000083 ], [ 0.36151123000019, 5.958679199000187 ], [ 0.353881836000085, 5.955322266000167 ], [ 0.34930419900013, 5.954528809000124 ], [ 0.344482422000056, 5.955505371000129 ], [ 0.342712402000132, 5.950073241999974 ], [ 0.341308594000168, 5.943908691000047 ], [ 0.340881347999982, 5.93572998000019 ], [ 0.338317871000072, 5.929504395000151 ], [ 0.339477539000086, 5.924682617000144 ], [ 0.339721680000139, 5.921691895000151 ], [ 0.340087891000167, 5.917907715000013 ], [ 0.341674805000025, 5.913330078000115 ], [ 0.343322754000042, 5.909484863000159 ], [ 0.344482422000056, 5.905700684000124 ], [ 0.3464965820001, 5.902893066 ], [ 0.347106934000124, 5.89788818400018 ], [ 0.348876953000115, 5.89288330100004 ], [ 0.349914550999983, 5.885681152000188 ], [ 0.348510742000144, 5.881286621000129 ], [ 0.347106934000124, 5.876708984000174 ], [ 0.345886230000019, 5.872070312000062 ], [ 0.345703125000057, 5.868103027000132 ], [ 0.345886230000019, 5.861694336000028 ], [ 0.3464965820001, 5.856323242000087 ], [ 0.348876953000115, 5.853515625000057 ], [ 0.350891113000159, 5.850097656000116 ], [ 0.352905273000033, 5.844299316000161 ], [ 0.352111816, 5.839111328000058 ], [ 0.355285645000151, 5.837524414000029 ], [ 0.356506348000153, 5.834899902000132 ], [ 0.358093262000182, 5.831726074000073 ], [ 0.356323242000087, 5.829284668000071 ], [ 0.352478027000188, 5.829895020000095 ], [ 0.347900391000167, 5.826904297000169 ], [ 0.348083496000129, 5.82250976600011 ], [ 0.347290039000086, 5.818725585999971 ], [ 0.3464965820001, 5.815490723000153 ], [ 0.3464965820001, 5.811279297 ], [ 0.347106934000124, 5.807678223000153 ], [ 0.347290039000086, 5.804687500000057 ], [ 0.347900391000167, 5.801330566000104 ], [ 0.350891113000159, 5.792480469000168 ], [ 0.350708008000026, 5.78930664100011 ], [ 0.350708008000026, 5.784912109000118 ], [ 0.354675293000071, 5.785522460999971 ], [ 0.359497069999975, 5.785705566000104 ], [ 0.364501953000115, 5.786071777000132 ], [ 0.371704102000137, 5.786499023000147 ], [ 0.378295898000033, 5.786926270000038 ], [ 0.381286621000129, 5.786926270000038 ], [ 0.39093017600004, 5.787475586000028 ], [ 0.403686523000033, 5.788085937000176 ], [ 0.410522461000085, 5.788330078 ], [ 0.414489746000129, 5.788330078 ], [ 0.420471191000047, 5.788696289000029 ], [ 0.426696777000018, 5.788879395000095 ], [ 0.434692383000083, 5.789123535000044 ], [ 0.437500000000114, 5.788696289000029 ], [ 0.443115234000061, 5.789123535000044 ], [ 0.450317383000083, 5.788879395000095 ], [ 0.458496094000054, 5.789672852000081 ], [ 0.461120605000076, 5.792297363000102 ], [ 0.46228027300009, 5.796325684000067 ], [ 0.458679199000017, 5.797302246000072 ], [ 0.456115723000039, 5.79992675800014 ], [ 0.458923340000069, 5.801513672000169 ], [ 0.457092284999987, 5.805297852000081 ], [ 0.460510254000098, 5.806701660000044 ], [ 0.465515137000068, 5.808715820000089 ], [ 0.464477538999972, 5.813903809000124 ], [ 0.464904784999987, 5.816894531000116 ], [ 0.46429443400001, 5.819885254000042 ], [ 0.472900391000053, 5.832885742000087 ], [ 0.483703613000046, 5.834472656000116 ], [ 0.489685059000067, 5.838684082000043 ], [ 0.489685059000067, 5.843078613000159 ], [ 0.484924316000047, 5.843872070000145 ], [ 0.481872559000067, 5.846679687 ], [ 0.480102538999972, 5.84930419900013 ], [ 0.484130859000061, 5.850524902000132 ], [ 0.484680176000097, 5.853515625000057 ], [ 0.484924316000047, 5.858093262000182 ], [ 0.481689453, 5.862487793000071 ], [ 0.484680176000097, 5.866088867000144 ], [ 0.484497070000032, 5.869506836000028 ], [ 0.485900879000098, 5.873474121000129 ], [ 0.486511230000076, 5.877075194999975 ], [ 0.490295410000044, 5.880920410000101 ], [ 0.491882324000073, 5.884704590000013 ], [ 0.495727539000143, 5.885498047000056 ], [ 0.497680664000029, 5.888488770000151 ], [ 0.496520996000186, 5.891723633000026 ], [ 0.494506836000141, 5.893920897999976 ], [ 0.496520996000186, 5.904479980000019 ], [ 0.497070312000119, 5.908325195000145 ], [ 0.497314453000172, 5.912719727000137 ], [ 0.494506836000141, 5.916320800999983 ], [ 0.494873047000169, 5.919494629000042 ], [ 0.497497559000067, 5.921081543000071 ], [ 0.498107909999987, 5.924682617000144 ], [ 0.499877930000082, 5.928100586000085 ], [ 0.49890136700003, 5.93109130900018 ], [ 0.501708984000061, 5.932678223000039 ], [ 0.502685547000112, 5.935913086000085 ], [ 0.499694824000017, 5.93890380900018 ], [ 0.499328613000046, 5.944702148000033 ], [ 0.500122070000032, 5.947692871000129 ], [ 0.499511719000054, 5.952270508000083 ], [ 0.497314453000172, 5.958496094000054 ], [ 0.503906250000171, 5.958129883000026 ], [ 0.507080078000058, 5.960876465000069 ], [ 0.50671386700003, 5.965270996000186 ], [ 0.502319336000141, 5.967529297000056 ], [ 0.498474121000015, 5.96710205100004 ], [ 0.497680664000029, 5.971313476999967 ], [ 0.497497559000067, 5.977478027000075 ], [ 0.498474121000015, 5.980712891 ], [ 0.50329589800009, 5.980529785000158 ], [ 0.506286621000186, 5.981079102000024 ], [ 0.510498047000112, 5.981323242000144 ], [ 0.513305663999972, 5.98327636700003 ], [ 0.510498047000112, 5.985717773000033 ], [ 0.507690430000082, 5.988525391000167 ], [ 0.502075195000089, 5.98968505900001 ], [ 0.499084473000096, 5.99108886700003 ] ] ] } },
{ "type": "Feature", "properties": { "name": "Asuogyaman", "region": "Eastern", "source": "OCHA COD-AB GHA ADM2", "in_original_pilot": false }, "geometry": { "type": "Polygon", "coordinates": [ [ [ 0.17712402300009, 6.567321777000132 ], [ 0.172485352000081, 6.568115234000174 ], [ 0.169128418000128, 6.568908691000161 ], [ 0.162902832000157, 6.570312500000057 ], [ 0.157897949000017, 6.573730469000168 ], [ 0.152709961000141, 6.577087402000188 ], [ 0.138916016000053, 6.576721191000161 ], [ 0.128723144999981, 6.575500488000159 ], [ 0.125671387000068, 6.574523926000154 ], [ 0.104492187000119, 6.566894531000116 ], [ 0.002502441, 6.536315918000014 ], [ -0.001525878999871, 6.483093262000125 ], [ -0.003906249999943, 6.450683594000111 ], [ -0.004821776999904, 6.420104980000133 ], [ -0.004211425999927, 6.402099609000061 ], [ -0.007629394999867, 6.385070801000097 ], [ -0.011718749999829, 6.362304687000062 ], [ -0.017089843999941, 6.332092285000158 ], [ -0.006896972999925, 6.330688477000024 ], [ -0.003295897999976, 6.327514648000033 ], [ -0.001525878999871, 6.323303223000039 ], [ 0.002685547000056, 6.323120117000144 ], [ 0.009521484000174, 6.32507324200003 ], [ 0.012878418000071, 6.323730469 ], [ 0.01788330100004, 6.322875977000024 ], [ 0.021301270000151, 6.322509766 ], [ 0.024291992000144, 6.319702148000033 ], [ 0.0300903320001, 6.317321777000188 ], [ 0.031127929999968, 6.312500000000114 ], [ 0.028686523000033, 6.310729980000019 ], [ 0.026306152000188, 6.306518555000025 ], [ 0.021484375000114, 6.302490234000061 ], [ 0.014892578000115, 6.297912597999982 ], [ 0.011291504000042, 6.294921875000057 ], [ 0.012695312000062, 6.288879394999981 ], [ 0.015502930000025, 6.278686523000033 ], [ 0.021911621000129, 6.28070068400018 ], [ 0.026123047000056, 6.283691406000173 ], [ 0.027099609, 6.289123535000101 ], [ 0.032104492000144, 6.29327392600004 ], [ 0.035278320000032, 6.295288086000085 ], [ 0.039306641000167, 6.296691895000151 ], [ 0.042297362999989, 6.297912597999982 ], [ 0.045288086000085, 6.299682616999974 ], [ 0.047912597999982, 6.297912597999982 ], [ 0.046691895000151, 6.289306641000167 ], [ 0.041687012000011, 6.284912109000174 ], [ 0.038696289000143, 6.285278320000032 ], [ 0.032470703000172, 6.276489258000026 ], [ 0.026489258000026, 6.268127441000161 ], [ 0.019897461000085, 6.266113281000116 ], [ 0.017700194999975, 6.261718750000057 ], [ 0.020874023000033, 6.257080078000115 ], [ 0.017700194999975, 6.252685547000056 ], [ 0.013488770000151, 6.248901367000144 ], [ 0.007690430000025, 6.248291016000167 ], [ 0.008300781000173, 6.244689941 ], [ 0.008483887000011, 6.23651123000019 ], [ 0.008117675999983, 6.231506348000153 ], [ 0.007080078000115, 6.22869873000019 ], [ 0.005493164000086, 6.225891113000159 ], [ 0.002075195000032, 6.223510742000087 ], [ -0.001220702999944, 6.220092773000033 ], [ -0.004211425999927, 6.217102050999983 ], [ -0.007080077999888, 6.212890625000057 ], [ -0.010681151999961, 6.206115723000153 ], [ -0.008178710999914, 6.204528809000124 ], [ -0.004211425999927, 6.204528809000124 ], [ 0.000122070000145, 6.206726074000073 ], [ 0.003479004000098, 6.205078125000057 ], [ 0.005310059000124, 6.199279785000101 ], [ 0.005126953000115, 6.194702147999976 ], [ 0.011474609, 6.193725586000028 ], [ 0.014526367000087, 6.19549560500019 ], [ 0.016906738000159, 6.197875977000137 ], [ 0.020080566000047, 6.201721191000161 ], [ 0.023498535000158, 6.204895020000095 ], [ 0.025329590000013, 6.20812988299997 ], [ 0.028930664000086, 6.210693359000174 ], [ 0.030517578000115, 6.2136840820001 ], [ 0.034301758000026, 6.213928223000096 ], [ 0.037475586000085, 6.215087891000167 ], [ 0.040283203000172, 6.214477539000086 ], [ 0.046508789000086, 6.2136840820001 ], [ 0.050292969000054, 6.216308594000168 ], [ 0.053100586000085, 6.218322754000042 ], [ 0.057128906000173, 6.220275879000042 ], [ 0.060302734, 6.221679687000062 ], [ 0.0632934570001, 6.2214965820001 ], [ 0.06671142600004, 6.221679687000062 ], [ 0.068481445000032, 6.218688965000013 ], [ 0.068298340000069, 6.215087891000167 ], [ 0.066284180000025, 6.212097168000071 ], [ 0.062072754000098, 6.210327148000147 ], [ 0.056884766, 6.209899902000132 ], [ 0.052917480000019, 6.209106445000145 ], [ 0.052490234000061, 6.203918457000043 ], [ 0.052490234000061, 6.199523926000154 ], [ 0.055480957000157, 6.196472168000071 ], [ 0.059692383000083, 6.195312500000057 ], [ 0.062500000000114, 6.192871094 ], [ 0.065307617000144, 6.190124512000125 ], [ 0.067504883000083, 6.188110352000081 ], [ 0.070495605000076, 6.18768310500019 ], [ 0.072326660000158, 6.184509277000132 ], [ 0.073303223000039, 6.181701660000101 ], [ 0.07507324200003, 6.177917480000133 ], [ 0.076904297000056, 6.173889160000101 ], [ 0.075317383000026, 6.169921875 ], [ 0.073486328000172, 6.167297363000102 ], [ 0.069885254000098, 6.165527344000111 ], [ 0.067871094000054, 6.163513184000067 ], [ 0.067321777000188, 6.15930175799997 ], [ 0.068298340000069, 6.154724121000015 ], [ 0.071289062000062, 6.151672363000102 ], [ 0.07507324200003, 6.150329590000126 ], [ 0.078308105000076, 6.149902344000111 ], [ 0.082092285000158, 6.150512695000089 ], [ 0.085327148000033, 6.149475098000153 ], [ 0.090270996000186, 6.14868164100011 ], [ 0.096923828000115, 6.149108887000125 ], [ 0.094482422000112, 6.152709961000028 ], [ 0.093078613000046, 6.155273437000176 ], [ 0.091674805000082, 6.158874512000182 ], [ 0.09210205100004, 6.161926270000038 ], [ 0.093688965000069, 6.164489746000072 ], [ 0.094482422000112, 6.168518066000104 ], [ 0.096130371000129, 6.174499512000125 ], [ 0.096313477000024, 6.177307128999985 ], [ 0.098693848000039, 6.179077147999976 ], [ 0.101684570000032, 6.181518555000139 ], [ 0.10491943400018, 6.184692383000026 ], [ 0.105712891, 6.188476562 ], [ 0.112915039000143, 6.207092285000101 ], [ 0.118530273000033, 6.218688965000013 ], [ 0.119506836000141, 6.222717285000101 ], [ 0.119689941000104, 6.225708008000026 ], [ 0.123291016000053, 6.232482910000101 ], [ 0.12390136700003, 6.238708496000072 ], [ 0.126708984000061, 6.245117187 ], [ 0.128479004000155, 6.248474121000129 ], [ 0.128723144999981, 6.256103516000167 ], [ 0.131286621000186, 6.25750732400013 ], [ 0.135314941000047, 6.260498047000056 ], [ 0.137084961000141, 6.264099121000129 ], [ 0.147277831999986, 6.277893066000047 ], [ 0.155700684000067, 6.289489746000129 ], [ 0.155273437000119, 6.292907715000069 ], [ 0.157714844000054, 6.297119141000167 ], [ 0.160522461000141, 6.300903320000032 ], [ 0.164306641000053, 6.301879883000083 ], [ 0.167297363000046, 6.302124023000033 ], [ 0.171081543000184, 6.302673340000069 ], [ 0.17407226600011, 6.302307129000098 ], [ 0.175476074000073, 6.304687500000114 ], [ 0.175903320000089, 6.307678223000039 ], [ 0.173278809000067, 6.309692383000083 ], [ 0.170471191000104, 6.310913086000085 ], [ 0.168701172000112, 6.313476562000062 ], [ 0.170104980000133, 6.316284180000025 ], [ 0.170104980000133, 6.319274902000075 ], [ 0.170471191000104, 6.322692871000129 ], [ 0.169494629000155, 6.326293945000032 ], [ 0.173095703, 6.327880859000061 ], [ 0.173889160000044, 6.330871582000157 ], [ 0.176086426000097, 6.333312987999989 ], [ 0.178100586000141, 6.336120605000076 ], [ 0.180480957000043, 6.339904785000158 ], [ 0.185913086000141, 6.339477538999972 ], [ 0.186279297000169, 6.342712402000018 ], [ 0.188720703, 6.34509277300009 ], [ 0.191711426000097, 6.346923828000115 ], [ 0.193908691000104, 6.349670410000044 ], [ 0.196716309000067, 6.353515625000114 ], [ 0.200500488000102, 6.353515625000114 ], [ 0.201477051000154, 6.356506348000039 ], [ 0.204284668000184, 6.35772705100004 ], [ 0.20227050799997, 6.362304687000062 ], [ 0.200927734000061, 6.366882324000017 ], [ 0.200073242000087, 6.370300293000128 ], [ 0.202880859000118, 6.371276855000133 ], [ 0.205505371000015, 6.372680663999972 ], [ 0.207519531000059, 6.376098633000083 ], [ 0.210510254000155, 6.377685547000112 ], [ 0.213317871000186, 6.379516602000024 ], [ 0.215515137000125, 6.383911133000083 ], [ 0.215515137000125, 6.389282227000024 ], [ 0.211120605000133, 6.39367675800014 ], [ 0.208923340000126, 6.398071289000029 ], [ 0.209289551000154, 6.402282715000126 ], [ 0.206481934000067, 6.404907227000024 ], [ 0.203308105000133, 6.407287598000096 ], [ 0.200683594000111, 6.408874512000125 ], [ 0.198486328000058, 6.410705566000104 ], [ 0.19470214800009, 6.412902832000157 ], [ 0.192077637000125, 6.414306641000053 ], [ 0.189270020000095, 6.415283203000058 ], [ 0.178283691000104, 6.42468261700003 ], [ 0.180297852000081, 6.427673340000126 ], [ 0.182678223000096, 6.431091309000067 ], [ 0.184875488000102, 6.436523437000119 ], [ 0.186279297000169, 6.441711426000097 ], [ 0.185913086000141, 6.445495605000133 ], [ 0.184326172000112, 6.461730957000157 ], [ 0.183898926000097, 6.465515137000125 ], [ 0.185302734000118, 6.469116210999971 ], [ 0.187072753999985, 6.472717285000044 ], [ 0.188903809000067, 6.476318359000118 ], [ 0.187500000000171, 6.481079102000081 ], [ 0.185485840000126, 6.48352050800014 ], [ 0.182128906000059, 6.485107422000169 ], [ 0.179504395000038, 6.487915039000029 ], [ 0.181091309000067, 6.491882324000073 ], [ 0.182128906000059, 6.495727539000029 ], [ 0.181518555000082, 6.498901367000087 ], [ 0.181091309000067, 6.502685547 ], [ 0.178894043000184, 6.504516602000081 ], [ 0.178527832000157, 6.508728027000075 ], [ 0.178283691000104, 6.512512207000043 ], [ 0.179870605000133, 6.515075684000124 ], [ 0.18249511700003, 6.520080566000161 ], [ 0.188110352000024, 6.526489258000026 ], [ 0.190917969000111, 6.530700684000124 ], [ 0.193481445000089, 6.534912109000118 ], [ 0.195678711000028, 6.539489746000072 ], [ 0.197509766000053, 6.542907715000183 ], [ 0.197875977000081, 6.546081543000071 ], [ 0.199279785000044, 6.549499512000182 ], [ 0.197875977000081, 6.554321289000029 ], [ 0.195129395000038, 6.555725098000096 ], [ 0.195495605000133, 6.560119629000042 ], [ 0.193481445000089, 6.563903809000124 ], [ 0.19030761700003, 6.56610107400013 ], [ 0.187316895000038, 6.567871094 ], [ 0.183471680000139, 6.566711425999983 ], [ 0.17712402300009, 6.567321777000132 ] ] ] } },
{ "type": "Feature", "properties": { "name": "Central Tongu", "region": "Volta", "source": "OCHA COD-AB GHA ADM2", "in_original_pilot": false }, "geometry": { "type": "Polygon", "coordinates": [ [ [ 0.693298340000013, 6.315124512000182 ], [ 0.689086914000086, 6.317871094000054 ], [ 0.686889648000033, 6.320678711000141 ], [ 0.68389892600004, 6.322875977000024 ], [ 0.680297852000137, 6.325683594000054 ], [ 0.67608642600004, 6.327697754000098 ], [ 0.672485352000137, 6.330322266000167 ], [ 0.672485352000137, 6.326293945000032 ], [ 0.673889160000101, 6.323730469 ], [ 0.675109863000159, 6.319885254000098 ], [ 0.673095703000115, 6.316528319999975 ], [ 0.669311522999976, 6.315673828000172 ], [ 0.666503906000116, 6.315124512000182 ], [ 0.663513184000124, 6.312927246000129 ], [ 0.659912109000174, 6.314697266 ], [ 0.658081054999968, 6.311706543000071 ], [ 0.655700684000124, 6.309509277000188 ], [ 0.651672363000159, 6.306518555000025 ], [ 0.648071289000086, 6.304504395000151 ], [ 0.644287109000174, 6.30407714800009 ], [ 0.640686035000101, 6.303710937000062 ], [ 0.632690430000139, 6.300903320000032 ], [ 0.628906250000057, 6.298706055000025 ], [ 0.626281738000159, 6.297119141000167 ], [ 0.623718262000125, 6.295288086000085 ], [ 0.618896484000118, 6.292907715000069 ], [ 0.616271973000153, 6.291076660000158 ], [ 0.615112305000139, 6.294677734000061 ], [ 0.615112305000139, 6.29852294900013 ], [ 0.614929199000073, 6.301696777000188 ], [ 0.61352539100011, 6.305114746000129 ], [ 0.609497070000145, 6.301696777000188 ], [ 0.604675293000071, 6.295898437000062 ], [ 0.601501465000183, 6.29132080100004 ], [ 0.598693848000096, 6.288696289000143 ], [ 0.596313477000081, 6.286926270000151 ], [ 0.593322754000155, 6.284912109000174 ], [ 0.589721680000082, 6.282287598000039 ], [ 0.586914062000119, 6.285522461000085 ], [ 0.58312988300014, 6.286499023000033 ], [ 0.579895020000095, 6.287719727000137 ], [ 0.574890137000125, 6.28851318400018 ], [ 0.572692871000072, 6.29132080100004 ], [ 0.57531738300014, 6.29852294900013 ], [ 0.575927734000118, 6.302307129000098 ], [ 0.569091797000169, 6.301696777000188 ], [ 0.565124512000068, 6.300903320000032 ], [ 0.561096191000104, 6.299682616999974 ], [ 0.557128906000059, 6.297729492000144 ], [ 0.552917480000133, 6.297302246000129 ], [ 0.548278809000067, 6.29827880900018 ], [ 0.546081543000184, 6.291076660000158 ], [ 0.544921875000171, 6.286499023000033 ], [ 0.543701172000169, 6.282714844 ], [ 0.538085937000119, 6.284729004000042 ], [ 0.535522461000141, 6.287475586000085 ], [ 0.533508301000097, 6.289672852000024 ], [ 0.530090331999986, 6.29132080100004 ], [ 0.526123047000112, 6.29327392600004 ], [ 0.521728516000053, 6.295898437000062 ], [ 0.518127441000047, 6.296081543000128 ], [ 0.514709473000039, 6.296691895000151 ], [ 0.511901855000133, 6.297302246000129 ], [ 0.508728027000075, 6.29852294900013 ], [ 0.506103516000053, 6.300109863000159 ], [ 0.502502441000104, 6.301513672000056 ], [ 0.498718262000068, 6.303100586000085 ], [ 0.495910645000038, 6.30407714800009 ], [ 0.492309570000032, 6.304687500000114 ], [ 0.488525391000053, 6.30407714800009 ], [ 0.484130859000061, 6.302490234000061 ], [ 0.480285645000038, 6.301696777000188 ], [ 0.474304199000187, 6.300720215000069 ], [ 0.47009277300009, 6.302124023000033 ], [ 0.466125487999989, 6.300476074000187 ], [ 0.461914062000062, 6.296691895000151 ], [ 0.458923340000069, 6.292480469000054 ], [ 0.455871582000157, 6.288879394999981 ], [ 0.451904297000112, 6.287719727000137 ], [ 0.447082520000038, 6.289123535000101 ], [ 0.443298340000069, 6.289306641000167 ], [ 0.43890380900018, 6.28851318400018 ], [ 0.432128906000173, 6.286682129000098 ], [ 0.430297852000024, 6.283874512000068 ], [ 0.428283691000047, 6.281127929999968 ], [ 0.426696777000018, 6.278686523000033 ], [ 0.426513672000056, 6.27569580100004 ], [ 0.425109862999989, 6.271118164000086 ], [ 0.424316406000173, 6.267089844000054 ], [ 0.425720215000069, 6.262878418000071 ], [ 0.430725097999982, 6.263671875000114 ], [ 0.458923340000069, 6.262329102000137 ], [ 0.462707519999981, 6.259887694999975 ], [ 0.466125487999989, 6.261474609 ], [ 0.468688965000126, 6.264892578000115 ], [ 0.472900391000053, 6.265502930000025 ], [ 0.476501465000126, 6.263305664000086 ], [ 0.477294922000112, 6.258728027000132 ], [ 0.475524902000018, 6.255126953000115 ], [ 0.472473145000038, 6.254516602000137 ], [ 0.469726562000062, 6.255676270000151 ], [ 0.459899902000075, 6.23468017600004 ], [ 0.457275391000053, 6.229492187 ], [ 0.455505371000129, 6.226074219 ], [ 0.452514648000033, 6.224121094000168 ], [ 0.445678711000141, 6.219482422000056 ], [ 0.444885254000098, 6.216125488000102 ], [ 0.44171142600004, 6.212890625000057 ], [ 0.438293457000157, 6.210876465000013 ], [ 0.439086914000143, 6.207092285000101 ], [ 0.442687988000046, 6.206298828000115 ], [ 0.447692871000186, 6.206298828000115 ], [ 0.451110840000069, 6.205688477000137 ], [ 0.456726074000187, 6.207702637000182 ], [ 0.463317871000129, 6.197875977000137 ], [ 0.467529297000056, 6.193725586000028 ], [ 0.469726562000062, 6.195922852000081 ], [ 0.47351074200003, 6.196716309000124 ], [ 0.476684570000089, 6.195922852000081 ], [ 0.478698730000076, 6.193481445000145 ], [ 0.481323241999974, 6.191284179999968 ], [ 0.487915039000143, 6.194274902000188 ], [ 0.491882324000073, 6.196472168000071 ], [ 0.495910645000038, 6.199279785000101 ], [ 0.499084473000096, 6.196289062 ], [ 0.499511719000054, 6.191284179999968 ], [ 0.498718262000068, 6.1875 ], [ 0.500488281000059, 6.184509277000132 ], [ 0.502929687000062, 6.182312012000125 ], [ 0.502929687000062, 6.178527832000043 ], [ 0.502319336000141, 6.17547607400013 ], [ 0.501281738000046, 6.166687012000125 ], [ 0.502502441000104, 6.161682129000042 ], [ 0.504516602000024, 6.157287598000153 ], [ 0.501098633000083, 6.153503418000184 ], [ 0.496887206999986, 6.149291992000087 ], [ 0.494506836000141, 6.144897461000028 ], [ 0.487121582000157, 6.138305664000029 ], [ 0.487915039000143, 6.13391113300014 ], [ 0.48571777300009, 6.131530762000068 ], [ 0.483886719000111, 6.129089355000133 ], [ 0.481506348000039, 6.125305176000154 ], [ 0.478088379000155, 6.12890625 ], [ 0.476928711000085, 6.124877930000139 ], [ 0.470275879000155, 6.127502441000104 ], [ 0.464721680000025, 6.13171386700003 ], [ 0.461120605000076, 6.129516602000081 ], [ 0.459716797000112, 6.125671387000125 ], [ 0.458312988000046, 6.122924805000082 ], [ 0.455871582000157, 6.119873047000169 ], [ 0.453308105000076, 6.115112305000082 ], [ 0.453125000000114, 6.11071777300009 ], [ 0.454101562000062, 6.106506348000096 ], [ 0.453308105000076, 6.101928711000141 ], [ 0.455322266, 6.096923828 ], [ 0.455688477000024, 6.093078613000102 ], [ 0.45788574200003, 6.090270996000072 ], [ 0.459289551000097, 6.087524413999972 ], [ 0.459716797000112, 6.083679199000073 ], [ 0.462524414000143, 6.084289551000097 ], [ 0.461486816000104, 6.081115723000039 ], [ 0.456298828000172, 6.079711913999972 ], [ 0.452697754000098, 6.081298828 ], [ 0.44952392600004, 6.083129883000083 ], [ 0.446472168000128, 6.084472656000059 ], [ 0.440490723000039, 6.085693359000118 ], [ 0.432922362999989, 6.086120605000076 ], [ 0.435302734000061, 6.080871582000043 ], [ 0.439270020000038, 6.080322266000053 ], [ 0.442504883000083, 6.078308105000133 ], [ 0.44171142600004, 6.074096680000082 ], [ 0.443908691000047, 6.071899414000029 ], [ 0.447082520000038, 6.068115234000061 ], [ 0.451293945000032, 6.065673828000058 ], [ 0.456115723000039, 6.063720703000172 ], [ 0.459472656000059, 6.062500000000171 ], [ 0.45788574200003, 6.054870605000133 ], [ 0.461120605000076, 6.054870605000133 ], [ 0.464111328000172, 6.05212402300009 ], [ 0.467895508000083, 6.049316406 ], [ 0.473327637000068, 6.046081543000184 ], [ 0.471496582000157, 6.042297363000046 ], [ 0.468688965000126, 6.03991699200003 ], [ 0.465087891000053, 6.038696288999972 ], [ 0.463928223000039, 6.034729004000098 ], [ 0.46228027300009, 6.030273437000119 ], [ 0.465515137000068, 6.028076172000112 ], [ 0.469726562000062, 6.027099609000061 ], [ 0.474304199000187, 6.025085449000017 ], [ 0.478515625000114, 6.023498534999987 ], [ 0.481872559000067, 6.022521973000039 ], [ 0.485107422000112, 6.022094727000024 ], [ 0.488525391000053, 6.019897461000141 ], [ 0.492919922000112, 6.018676758000083 ], [ 0.496276855000133, 6.015502930000025 ], [ 0.497314453000172, 6.012329101999967 ], [ 0.496704102000024, 6.009277344000111 ], [ 0.500305176000097, 6.00811767600004 ], [ 0.504272460999971, 6.004882812000119 ], [ 0.506896973000096, 6.00329589800009 ], [ 0.510314941000104, 6.003112793000128 ], [ 0.515319824000017, 6.002929687000062 ], [ 0.518127441000047, 6.001892090000069 ], [ 0.522094727000081, 6.002075195000032 ], [ 0.525512695000089, 6.002929687000062 ], [ 0.532287598000096, 6.005493164000143 ], [ 0.541076660000044, 6.007080078000172 ], [ 0.54907226600011, 6.007690430000082 ], [ 0.550903320000089, 6.017089844000054 ], [ 0.549926758000083, 6.0203247070001 ], [ 0.550720215000126, 6.030273437000119 ], [ 0.548706055000082, 6.037475586000141 ], [ 0.549926758000083, 6.041687012000068 ], [ 0.550292969000111, 6.044677734000118 ], [ 0.552307129000155, 6.048095703 ], [ 0.553894043000184, 6.052307129000098 ], [ 0.554321289000029, 6.055297852000024 ], [ 0.553527832000157, 6.058898926000097 ], [ 0.553283691000104, 6.063110352000024 ], [ 0.553283691000104, 6.066284180000082 ], [ 0.553100585999971, 6.06970214800009 ], [ 0.552917480000133, 6.073303223000096 ], [ 0.552490234000118, 6.076477051000154 ], [ 0.552673340000183, 6.080871582000043 ], [ 0.557312012000125, 6.084716797000112 ], [ 0.561523437000119, 6.083679199000073 ], [ 0.565673828000058, 6.08288574200003 ], [ 0.571472168000014, 6.081909180000082 ], [ 0.579895020000095, 6.080078125 ], [ 0.583496094000111, 6.07952880900001 ], [ 0.587097168000184, 6.078918457000157 ], [ 0.587524414000029, 6.08227539100011 ], [ 0.588684082000043, 6.085876465000126 ], [ 0.597290039000029, 6.100524902000075 ], [ 0.601318359000118, 6.102722168000128 ], [ 0.604492187000176, 6.104919434000067 ], [ 0.608276367000087, 6.106506348000096 ], [ 0.617919922000169, 6.106506348000096 ], [ 0.622314453000058, 6.102722168000128 ], [ 0.625122070000089, 6.099121094000111 ], [ 0.626525878999985, 6.095703125000171 ], [ 0.630126953000058, 6.094116211000141 ], [ 0.633117676000154, 6.094482422000169 ], [ 0.636291504000042, 6.095703125000171 ], [ 0.639282227000137, 6.096679687000176 ], [ 0.643920898000147, 6.09851074200003 ], [ 0.649475098000153, 6.101928711000141 ], [ 0.652893066000161, 6.104309081999986 ], [ 0.6550903320001, 6.107482910000044 ], [ 0.656127930000139, 6.11071777300009 ], [ 0.659912109000174, 6.112670898000147 ], [ 0.664489746000072, 6.111877441000161 ], [ 0.667297363000159, 6.108886719000111 ], [ 0.670898437, 6.106689453000058 ], [ 0.675292969, 6.10852050800014 ], [ 0.678283691, 6.111511230000133 ], [ 0.679870605000019, 6.114501953000058 ], [ 0.683471680000025, 6.116516113000046 ], [ 0.686279297000056, 6.11828613300014 ], [ 0.689086914000086, 6.120727539000029 ], [ 0.692321777000132, 6.123474121000072 ], [ 0.694702148000033, 6.126708984000118 ], [ 0.698730469000168, 6.132690430000139 ], [ 0.700500488000159, 6.135070801000154 ], [ 0.702270508000083, 6.137695312000176 ], [ 0.704101562000062, 6.140502930000139 ], [ 0.705688476999967, 6.144104003999985 ], [ 0.70648193400018, 6.147888184000124 ], [ 0.706909179999968, 6.151306152000132 ], [ 0.708923340000013, 6.155273437000176 ], [ 0.712280273000033, 6.155273437000176 ], [ 0.715270996000129, 6.155090332000043 ], [ 0.719299316000047, 6.155090332000043 ], [ 0.720703125000114, 6.159912109000118 ], [ 0.720275879000098, 6.163696289000029 ], [ 0.720520020000151, 6.166503906000116 ], [ 0.721679687000062, 6.169494629000042 ], [ 0.720703125000114, 6.173095703000058 ], [ 0.719482422000056, 6.175903320000145 ], [ 0.721130371000072, 6.179321289000029 ], [ 0.720275879000098, 6.182922363000102 ], [ 0.721313477000137, 6.185729980000133 ], [ 0.719726562, 6.18969726600011 ], [ 0.718688965000069, 6.193481445000145 ], [ 0.718688965000069, 6.19750976600011 ], [ 0.71710205100004, 6.201110840000183 ], [ 0.715698242000144, 6.204895020000095 ], [ 0.716308594, 6.208496094000168 ], [ 0.714721679999968, 6.212524414000029 ], [ 0.7136840820001, 6.21649169900013 ], [ 0.71710205100004, 6.218688965000013 ], [ 0.716918945000145, 6.222900391000167 ], [ 0.713073730000076, 6.223510742000087 ], [ 0.708923340000013, 6.226501465000013 ], [ 0.707702637000182, 6.229919434000124 ], [ 0.708923340000013, 6.233276367000144 ], [ 0.704284668000071, 6.236328125000057 ], [ 0.702087402000188, 6.23968505900018 ], [ 0.700317383000026, 6.242919922 ], [ 0.699523925999983, 6.245727539000086 ], [ 0.69891357400013, 6.24969482400013 ], [ 0.699523925999983, 6.255126953000115 ], [ 0.699096680000025, 6.260314941 ], [ 0.699279785000158, 6.264526367000087 ], [ 0.697875976999967, 6.269287109 ], [ 0.694885254000042, 6.273681641 ], [ 0.69110107400013, 6.276916504000042 ], [ 0.689514160000101, 6.279296875000114 ], [ 0.687683105000019, 6.282714844 ], [ 0.685302734000174, 6.285095215000069 ], [ 0.681518555000139, 6.285888672000056 ], [ 0.680297852000137, 6.289489746000129 ], [ 0.67791748000019, 6.292114258000026 ], [ 0.677490234000174, 6.296691895000151 ], [ 0.677307129000042, 6.300476074000187 ], [ 0.678527832000043, 6.30407714800009 ], [ 0.681884766000167, 6.307312012000011 ], [ 0.687072754000098, 6.306274414000143 ], [ 0.691284180000025, 6.307495116999974 ], [ 0.693481444999975, 6.309692383000083 ], [ 0.695312500000057, 6.312316895000151 ], [ 0.693298340000013, 6.315124512000182 ] ] ] } },
{ "type": "Feature", "properties": { "name": "Lower Manya", "region": "Eastern", "source": "OCHA COD-AB GHA ADM2", "in_original_pilot": false }, "geometry": { "type": "Polygon", "coordinates": [ [ [ 0.096923828000115, 6.149108887000125 ], [ 0.090270996000186, 6.14868164100011 ], [ 0.085327148000033, 6.149475098000153 ], [ 0.082092285000158, 6.150512695000089 ], [ 0.078308105000076, 6.149902344000111 ], [ 0.07507324200003, 6.150329590000126 ], [ 0.071289062000062, 6.151672363000102 ], [ 0.068298340000069, 6.154724121000015 ], [ 0.067321777000188, 6.15930175799997 ], [ 0.067871094000054, 6.163513184000067 ], [ 0.069885254000098, 6.165527344000111 ], [ 0.073486328000172, 6.167297363000102 ], [ 0.075317383000026, 6.169921875 ], [ 0.076904297000056, 6.173889160000101 ], [ 0.07507324200003, 6.177917480000133 ], [ 0.073303223000039, 6.181701660000101 ], [ 0.072326660000158, 6.184509277000132 ], [ 0.070495605000076, 6.18768310500019 ], [ 0.067504883000083, 6.188110352000081 ], [ 0.065307617000144, 6.190124512000125 ], [ 0.062500000000114, 6.192871094 ], [ 0.059692383000083, 6.195312500000057 ], [ 0.055480957000157, 6.196472168000071 ], [ 0.052490234000061, 6.199523926000154 ], [ 0.052490234000061, 6.203918457000043 ], [ 0.052917480000019, 6.209106445000145 ], [ 0.056884766, 6.209899902000132 ], [ 0.062072754000098, 6.210327148000147 ], [ 0.066284180000025, 6.212097168000071 ], [ 0.068298340000069, 6.215087891000167 ], [ 0.068481445000032, 6.218688965000013 ], [ 0.06671142600004, 6.221679687000062 ], [ 0.0632934570001, 6.2214965820001 ], [ 0.060302734, 6.221679687000062 ], [ 0.057128906000173, 6.220275879000042 ], [ 0.053100586000085, 6.218322754000042 ], [ 0.050292969000054, 6.216308594000168 ], [ 0.046508789000086, 6.2136840820001 ], [ 0.040283203000172, 6.214477539000086 ], [ 0.037475586000085, 6.215087891000167 ], [ 0.034301758000026, 6.213928223000096 ], [ 0.030517578000115, 6.2136840820001 ], [ 0.028930664000086, 6.210693359000174 ], [ 0.025329590000013, 6.20812988299997 ], [ 0.023498535000158, 6.204895020000095 ], [ 0.020080566000047, 6.201721191000161 ], [ 0.016906738000159, 6.197875977000137 ], [ 0.014526367000087, 6.19549560500019 ], [ 0.011474609, 6.193725586000028 ], [ 0.005126953000115, 6.194702147999976 ], [ 0.005310059000124, 6.199279785000101 ], [ 0.003479004000098, 6.205078125000057 ], [ 0.000122070000145, 6.206726074000073 ], [ -0.004211425999927, 6.204528809000124 ], [ -0.008178710999914, 6.204528809000124 ], [ -0.010681151999961, 6.206115723000153 ], [ -0.007080077999888, 6.212890625000057 ], [ -0.004211425999927, 6.217102050999983 ], [ -0.001220702999944, 6.220092773000033 ], [ 0.002075195000032, 6.223510742000087 ], [ 0.005493164000086, 6.225891113000159 ], [ 0.007080078000115, 6.22869873000019 ], [ 0.008117675999983, 6.231506348000153 ], [ 0.008483887000011, 6.23651123000019 ], [ 0.008300781000173, 6.244689941 ], [ 0.007690430000025, 6.248291016000167 ], [ 0.013488770000151, 6.248901367000144 ], [ 0.017700194999975, 6.252685547000056 ], [ 0.020874023000033, 6.257080078000115 ], [ 0.017700194999975, 6.261718750000057 ], [ 0.019897461000085, 6.266113281000116 ], [ 0.026489258000026, 6.268127441000161 ], [ 0.032470703000172, 6.276489258000026 ], [ 0.038696289000143, 6.285278320000032 ], [ 0.041687012000011, 6.284912109000174 ], [ 0.046691895000151, 6.289306641000167 ], [ 0.047912597999982, 6.297912597999982 ], [ 0.045288086000085, 6.299682616999974 ], [ 0.042297362999989, 6.297912597999982 ], [ 0.039306641000167, 6.296691895000151 ], [ 0.035278320000032, 6.295288086000085 ], [ 0.032104492000144, 6.29327392600004 ], [ 0.027099609, 6.289123535000101 ], [ 0.026123047000056, 6.283691406000173 ], [ 0.021911621000129, 6.28070068400018 ], [ 0.015502930000025, 6.278686523000033 ], [ 0.012695312000062, 6.288879394999981 ], [ 0.011291504000042, 6.294921875000057 ], [ 0.014892578000115, 6.297912597999982 ], [ 0.021484375000114, 6.302490234000061 ], [ 0.026306152000188, 6.306518555000025 ], [ 0.028686523000033, 6.310729980000019 ], [ 0.031127929999968, 6.312500000000114 ], [ 0.0300903320001, 6.317321777000188 ], [ 0.024291992000144, 6.319702148000033 ], [ 0.021301270000151, 6.322509766 ], [ 0.01788330100004, 6.322875977000024 ], [ 0.012878418000071, 6.323730469 ], [ 0.009521484000174, 6.32507324200003 ], [ 0.002685547000056, 6.323120117000144 ], [ -0.001525878999871, 6.323303223000039 ], [ -0.003295897999976, 6.327514648000033 ], [ -0.006896972999925, 6.330688477000024 ], [ -0.017089843999941, 6.332092285000158 ], [ -0.022521972999925, 6.325683594000054 ], [ -0.029113769999867, 6.318725586000085 ], [ -0.036499022999976, 6.304504395000151 ], [ -0.040710448999903, 6.286682129000098 ], [ -0.042785644999924, 6.278503418000071 ], [ -0.047912597999925, 6.270690918000071 ], [ -0.053222655999889, 6.263488770000151 ], [ -0.056579589999842, 6.258300781000173 ], [ -0.058593749999943, 6.252929687000176 ], [ -0.067077636999898, 6.248291016000167 ], [ -0.072387694999975, 6.244689941 ], [ -0.075500487999932, 6.24188232400013 ], [ -0.07788085899989, 6.238098145000151 ], [ -0.080688476999967, 6.235900879000042 ], [ -0.083923339999899, 6.234130859000118 ], [ -0.086181640999882, 6.228515625000057 ], [ -0.085327147999976, 6.223510742000087 ], [ -0.080383300999927, 6.217529297000169 ], [ -0.071899413999972, 6.217102050999983 ], [ -0.074218749999943, 6.211914062000176 ], [ -0.07788085899989, 6.208496094000168 ], [ -0.081298827999888, 6.2058715820001 ], [ -0.083618163999972, 6.202270508000026 ], [ -0.084777831999929, 6.199279785000101 ], [ -0.085388183999953, 6.195129395000095 ], [ -0.087219237999932, 6.192077637000182 ], [ -0.088684081999816, 6.188293457000043 ], [ -0.089294433999953, 6.184692383000026 ], [ -0.089721679999968, 6.181701660000101 ], [ -0.088012694999975, 6.179077147999976 ], [ -0.085815429999968, 6.176513672000169 ], [ -0.082092284999931, 6.172302246000072 ], [ -0.078918456999872, 6.167724609000118 ], [ -0.077392577999831, 6.163513184000067 ], [ -0.076110839999899, 6.158874512000182 ], [ -0.072021483999947, 6.158691406000116 ], [ -0.067810058999953, 6.157470703000115 ], [ -0.065795897999976, 6.15447998000019 ], [ -0.06701660199991, 6.149291992000087 ], [ -0.069885253999928, 6.146118164000029 ], [ -0.067382812999938, 6.14367675799997 ], [ -0.064208983999947, 6.14367675799997 ], [ -0.060607909999817, 6.144897461000028 ], [ -0.055786132999913, 6.147094727000081 ], [ -0.053222655999889, 6.150512695000089 ], [ -0.052917479999962, 6.155273437000176 ], [ -0.049499511999954, 6.157104492000087 ], [ -0.045104979999962, 6.157714844000111 ], [ -0.044494628999928, 6.150695801000154 ], [ -0.040893554999968, 6.147521973000096 ], [ -0.038513183999896, 6.144104003999985 ], [ -0.038696288999972, 6.140319824000073 ], [ -0.041381835999857, 6.137695312000176 ], [ -0.036926269999867, 6.131286621000072 ], [ -0.034118651999904, 6.129089355000133 ], [ -0.031188964999899, 6.125305176000154 ], [ -0.02648925799997, 6.125488281000116 ], [ -0.023010253999814, 6.124511719000111 ], [ -0.019775390999939, 6.12329101600011 ], [ -0.016479491999917, 6.122680664000029 ], [ -0.01037597699991, 6.12329101600011 ], [ -0.0070190429999, 6.120300293000184 ], [ -0.006591796999885, 6.117309570000089 ], [ -0.004089354999962, 6.114501953000058 ], [ -0.000793456999929, 6.113708496000015 ], [ 0.002502441, 6.111511230000133 ], [ 0.001281738000159, 6.107482910000044 ], [ 0.002075195000032, 6.104125977000024 ], [ 0.006896972999982, 6.101928711000141 ], [ 0.011718750000057, 6.100524902000075 ], [ 0.015686035000158, 6.099670410000044 ], [ 0.019897461000085, 6.099487305000082 ], [ 0.024291992000144, 6.099121094000111 ], [ 0.029724121000072, 6.097900391000053 ], [ 0.033691406000173, 6.101318359000061 ], [ 0.037719727000137, 6.102478027000132 ], [ 0.040893555000025, 6.100524902000075 ], [ 0.042114258000026, 6.096923828 ], [ 0.044128418000071, 6.093688965000126 ], [ 0.04852294900013, 6.093322754000155 ], [ 0.051696777000188, 6.094726562000119 ], [ 0.058105469000054, 6.095520020000038 ], [ 0.061523437000062, 6.093872070000089 ], [ 0.064270020000038, 6.093322754000155 ], [ 0.069885254000098, 6.093078613000102 ], [ 0.074279784999987, 6.093078613000102 ], [ 0.077880859000061, 6.093322754000155 ], [ 0.084472656000059, 6.093505859000118 ], [ 0.086303711000085, 6.098876953000058 ], [ 0.08929443400001, 6.103271484000118 ], [ 0.093322754000098, 6.102111816000104 ], [ 0.094909668000128, 6.093872070000089 ], [ 0.099121094000054, 6.094116211000141 ], [ 0.103515625000114, 6.094482422000169 ], [ 0.1121215820001, 6.095092773000147 ], [ 0.119323730000076, 6.096679687000176 ], [ 0.122924805000025, 6.096923828 ], [ 0.125488281000059, 6.095520020000038 ], [ 0.129699707000157, 6.097473145000095 ], [ 0.134277344000111, 6.099914551000097 ], [ 0.140502930000082, 6.099670410000044 ], [ 0.143127441000047, 6.100891113000102 ], [ 0.144470215000126, 6.106079102000081 ], [ 0.146484375000171, 6.109313965000126 ], [ 0.142089844000111, 6.110290527000132 ], [ 0.137512207000157, 6.114074707000043 ], [ 0.133911133000083, 6.117492676000154 ], [ 0.130920410000158, 6.120300293000184 ], [ 0.128112793000128, 6.122497559000067 ], [ 0.125915527000018, 6.124694824000073 ], [ 0.122680663999972, 6.127929687000119 ], [ 0.12048339800009, 6.131530762000068 ], [ 0.120300293000128, 6.134277344000168 ], [ 0.118713379000098, 6.137084961000028 ], [ 0.114685059000067, 6.137878418000014 ], [ 0.111083984000061, 6.138488770000095 ], [ 0.107910156, 6.139099121000072 ], [ 0.10491943400018, 6.140502930000139 ], [ 0.101928711000085, 6.143310547000169 ], [ 0.099487305000082, 6.146301270000095 ], [ 0.096923828000115, 6.149108887000125 ] ] ] } },
{ "type": "Feature", "properties": { "name": "North Tongu", "region": "Volta", "source": "OCHA COD-AB GHA ADM2", "in_original_pilot": false }, "geometry": { "type": "Polygon", "coordinates": [ [ [ 0.290283203000115, 6.333923340000069 ], [ 0.282470703000115, 6.333923340000069 ], [ 0.272888184000124, 6.333923340000069 ], [ 0.258728027000075, 6.333923340000069 ], [ 0.245483398000147, 6.333679199000187 ], [ 0.236511230000133, 6.333679199000187 ], [ 0.228515625000171, 6.333679199000187 ], [ 0.218322754000155, 6.333679199000187 ], [ 0.209899902000075, 6.333923340000069 ], [ 0.200683594000111, 6.333923340000069 ], [ 0.197692871000015, 6.333923340000069 ], [ 0.190490723000096, 6.333496094000054 ], [ 0.187316895000038, 6.332702637000068 ], [ 0.181701660000044, 6.330871582000157 ], [ 0.173889160000044, 6.330871582000157 ], [ 0.173095703, 6.327880859000061 ], [ 0.169494629000155, 6.326293945000032 ], [ 0.170471191000104, 6.322692871000129 ], [ 0.170104980000133, 6.319274902000075 ], [ 0.170104980000133, 6.316284180000025 ], [ 0.168701172000112, 6.313476562000062 ], [ 0.170471191000104, 6.310913086000085 ], [ 0.173278809000067, 6.309692383000083 ], [ 0.175903320000089, 6.307678223000039 ], [ 0.175476074000073, 6.304687500000114 ], [ 0.17407226600011, 6.302307129000098 ], [ 0.171081543000184, 6.302673340000069 ], [ 0.167297363000046, 6.302124023000033 ], [ 0.164306641000053, 6.301879883000083 ], [ 0.160522461000141, 6.300903320000032 ], [ 0.157714844000054, 6.297119141000167 ], [ 0.155273437000119, 6.292907715000069 ], [ 0.155700684000067, 6.289489746000129 ], [ 0.147277831999986, 6.277893066000047 ], [ 0.137084961000141, 6.264099121000129 ], [ 0.135314941000047, 6.260498047000056 ], [ 0.131286621000186, 6.25750732400013 ], [ 0.128723144999981, 6.256103516000167 ], [ 0.128479004000155, 6.248474121000129 ], [ 0.126708984000061, 6.245117187 ], [ 0.12390136700003, 6.238708496000072 ], [ 0.123291016000053, 6.232482910000101 ], [ 0.119689941000104, 6.225708008000026 ], [ 0.119506836000141, 6.222717285000101 ], [ 0.118530273000033, 6.218688965000013 ], [ 0.112915039000143, 6.207092285000101 ], [ 0.105712891, 6.188476562 ], [ 0.10491943400018, 6.184692383000026 ], [ 0.101684570000032, 6.181518555000139 ], [ 0.098693848000039, 6.179077147999976 ], [ 0.096313477000024, 6.177307128999985 ], [ 0.096130371000129, 6.174499512000125 ], [ 0.094482422000112, 6.168518066000104 ], [ 0.093688965000069, 6.164489746000072 ], [ 0.09210205100004, 6.161926270000038 ], [ 0.091674805000082, 6.158874512000182 ], [ 0.093078613000046, 6.155273437000176 ], [ 0.094482422000112, 6.152709961000028 ], [ 0.096923828000115, 6.149108887000125 ], [ 0.099487305000082, 6.146301270000095 ], [ 0.101928711000085, 6.143310547000169 ], [ 0.10491943400018, 6.140502930000139 ], [ 0.107910156, 6.139099121000072 ], [ 0.111083984000061, 6.138488770000095 ], [ 0.114685059000067, 6.137878418000014 ], [ 0.118713379000098, 6.137084961000028 ], [ 0.120300293000128, 6.134277344000168 ], [ 0.12048339800009, 6.131530762000068 ], [ 0.122680663999972, 6.127929687000119 ], [ 0.125915527000018, 6.124694824000073 ], [ 0.128112793000128, 6.122497559000067 ], [ 0.130920410000158, 6.120300293000184 ], [ 0.133911133000083, 6.117492676000154 ], [ 0.137512207000157, 6.114074707000043 ], [ 0.142089844000111, 6.110290527000132 ], [ 0.146484375000171, 6.109313965000126 ], [ 0.150329590000069, 6.108276367000087 ], [ 0.154907227000024, 6.106689453000058 ], [ 0.159484863000046, 6.105102539000029 ], [ 0.164306641000053, 6.103515625000171 ], [ 0.168273926000154, 6.102478027000132 ], [ 0.171691895000038, 6.101501465000126 ], [ 0.174499512000068, 6.100891113000102 ], [ 0.177917480000076, 6.100280762000125 ], [ 0.18188476600011, 6.099487305000082 ], [ 0.186096191000104, 6.097717285000044 ], [ 0.19030761700003, 6.096923828 ], [ 0.193481445000089, 6.097473145000095 ], [ 0.203308105000133, 6.101928711000141 ], [ 0.206481934000067, 6.103271484000118 ], [ 0.213073730000133, 6.103698730000133 ], [ 0.216674805000139, 6.104125977000024 ], [ 0.222106934000067, 6.104675293000184 ], [ 0.23071289100011, 6.108276367000087 ], [ 0.234680176000154, 6.109680176000154 ], [ 0.238281250000057, 6.108093262000125 ], [ 0.241088867000087, 6.107482910000044 ], [ 0.247924805000082, 6.105712891000053 ], [ 0.254882812000176, 6.099670410000044 ], [ 0.259094238000102, 6.098083496000015 ], [ 0.262084961000028, 6.096679687000176 ], [ 0.265502930000139, 6.095703125000171 ], [ 0.267883300999983, 6.094299316000104 ], [ 0.274475098000153, 6.089721680000082 ], [ 0.277282715000183, 6.086914062000119 ], [ 0.281127930000139, 6.084106445000089 ], [ 0.284912109000118, 6.080688477000081 ], [ 0.287109375000057, 6.077087402000075 ], [ 0.288085937, 6.074279785000044 ], [ 0.288513184000124, 6.071472168000184 ], [ 0.289123535000044, 6.067077637000125 ], [ 0.290100098000153, 6.063110352000024 ], [ 0.293701172, 6.059082031000059 ], [ 0.29711914100011, 6.056518555000082 ], [ 0.300109863000102, 6.055114746000186 ], [ 0.303710937000176, 6.054687500000171 ], [ 0.306701660000101, 6.054321289000143 ], [ 0.309692383000026, 6.05407714800009 ], [ 0.313476562000062, 6.053710937000119 ], [ 0.316528320000145, 6.053527832000157 ], [ 0.321105957000043, 6.053100586000141 ], [ 0.326110840000183, 6.051696777000075 ], [ 0.328918457000043, 6.050720215000069 ], [ 0.33172607400013, 6.04968261700003 ], [ 0.334716797, 6.048522949000187 ], [ 0.337524414000086, 6.047302246000186 ], [ 0.335876465000069, 6.040893555000082 ], [ 0.332519531000116, 6.038085937000119 ], [ 0.332092285000101, 6.034912109000061 ], [ 0.33428955100004, 6.033081055000082 ], [ 0.337097168000071, 6.030883788999972 ], [ 0.339904785000101, 6.029113769999981 ], [ 0.343322754000042, 6.026916504000098 ], [ 0.345703125000057, 6.025085449000017 ], [ 0.347717285000101, 6.022277832000157 ], [ 0.343872070000032, 6.021301270000038 ], [ 0.340515137000182, 6.019287109000061 ], [ 0.338317871000072, 6.016906738000046 ], [ 0.336303711000028, 6.013916016 ], [ 0.33428955100004, 6.010681152000075 ], [ 0.331909179999968, 6.007080078000172 ], [ 0.3308715820001, 6.003479004000098 ], [ 0.33148193400018, 5.994873047000112 ], [ 0.335327147999976, 5.992675781000059 ], [ 0.3386840820001, 5.990722656000173 ], [ 0.342712402000132, 5.988708496000129 ], [ 0.3464965820001, 5.988098144999981 ], [ 0.351074219000054, 5.988098144999981 ], [ 0.353088379000042, 5.985900879000098 ], [ 0.351684569999975, 5.981689453000172 ], [ 0.350280762000011, 5.977111816000047 ], [ 0.349670410000158, 5.973083496000129 ], [ 0.34930419900013, 5.970275879000098 ], [ 0.348510742000144, 5.965087891 ], [ 0.347717285000101, 5.961914062000062 ], [ 0.3464965820001, 5.959106445000032 ], [ 0.344482422000056, 5.955505371000129 ], [ 0.34930419900013, 5.954528809000124 ], [ 0.353881836000085, 5.955322266000167 ], [ 0.36151123000019, 5.958679199000187 ], [ 0.365295410000158, 5.960083008000083 ], [ 0.371276855000076, 5.960693359000061 ], [ 0.37469482400013, 5.960876465000069 ], [ 0.377502441000047, 5.961120605000019 ], [ 0.384094237999989, 5.961303711000085 ], [ 0.387695312000062, 5.960876465000069 ], [ 0.391113281000173, 5.960327148000033 ], [ 0.3953247070001, 5.961120605000019 ], [ 0.398925781000173, 5.962524414000086 ], [ 0.403686523000033, 5.965087891 ], [ 0.407897949000187, 5.966125488000159 ], [ 0.413085937000062, 5.967895508000083 ], [ 0.417480469000054, 5.969909668000071 ], [ 0.421875000000114, 5.971130371000129 ], [ 0.425292969000054, 5.971923828000115 ], [ 0.429504394999981, 5.973693848000039 ], [ 0.435729980000019, 5.976318359 ], [ 0.438720703000115, 5.981079102000024 ], [ 0.440917969000054, 5.983093262000068 ], [ 0.441894531, 5.986511230000076 ], [ 0.440673828000172, 5.991271973000039 ], [ 0.441528320000032, 5.99548339800009 ], [ 0.444885254000098, 5.996704102000024 ], [ 0.448120116999974, 5.999328612999989 ], [ 0.452514648000033, 6.001281738000046 ], [ 0.455322266, 5.999877930000082 ], [ 0.458679199000017, 5.998718262000011 ], [ 0.467529297000056, 5.998291016000053 ], [ 0.477294922000112, 5.993103027000018 ], [ 0.481506348000039, 5.991882324000187 ], [ 0.48571777300009, 5.98992919900013 ], [ 0.485290527000075, 5.985107422000056 ], [ 0.48547363300014, 5.981079102000024 ], [ 0.485900879000098, 5.976928711000085 ], [ 0.489318848000039, 5.978698730000076 ], [ 0.491882324000073, 5.980712891 ], [ 0.490112305000082, 5.984313965000069 ], [ 0.490722656, 5.988708496000129 ], [ 0.492309570000032, 5.993896484000061 ], [ 0.496520996000186, 5.992492676000097 ], [ 0.499084473000096, 5.99108886700003 ], [ 0.500305176000097, 5.995117187000062 ], [ 0.497497559000067, 5.996887207000157 ], [ 0.496520996000186, 5.999694824000187 ], [ 0.499511719000054, 6.002502441000047 ], [ 0.497680664000029, 6.005676270000038 ], [ 0.496704102000024, 6.009277344000111 ], [ 0.497314453000172, 6.012329101999967 ], [ 0.496276855000133, 6.015502930000025 ], [ 0.492919922000112, 6.018676758000083 ], [ 0.488525391000053, 6.019897461000141 ], [ 0.485107422000112, 6.022094727000024 ], [ 0.481872559000067, 6.022521973000039 ], [ 0.478515625000114, 6.023498534999987 ], [ 0.474304199000187, 6.025085449000017 ], [ 0.469726562000062, 6.027099609000061 ], [ 0.465515137000068, 6.028076172000112 ], [ 0.46228027300009, 6.030273437000119 ], [ 0.463928223000039, 6.034729004000098 ], [ 0.465087891000053, 6.038696288999972 ], [ 0.468688965000126, 6.03991699200003 ], [ 0.471496582000157, 6.042297363000046 ], [ 0.473327637000068, 6.046081543000184 ], [ 0.467895508000083, 6.049316406 ], [ 0.464111328000172, 6.05212402300009 ], [ 0.461120605000076, 6.054870605000133 ], [ 0.45788574200003, 6.054870605000133 ], [ 0.459472656000059, 6.062500000000171 ], [ 0.456115723000039, 6.063720703000172 ], [ 0.451293945000032, 6.065673828000058 ], [ 0.447082520000038, 6.068115234000061 ], [ 0.443908691000047, 6.071899414000029 ], [ 0.44171142600004, 6.074096680000082 ], [ 0.442504883000083, 6.078308105000133 ], [ 0.439270020000038, 6.080322266000053 ], [ 0.435302734000061, 6.080871582000043 ], [ 0.432922362999989, 6.086120605000076 ], [ 0.440490723000039, 6.085693359000118 ], [ 0.446472168000128, 6.084472656000059 ], [ 0.44952392600004, 6.083129883000083 ], [ 0.452697754000098, 6.081298828 ], [ 0.456298828000172, 6.079711913999972 ], [ 0.461486816000104, 6.081115723000039 ], [ 0.462524414000143, 6.084289551000097 ], [ 0.459716797000112, 6.083679199000073 ], [ 0.459289551000097, 6.087524413999972 ], [ 0.45788574200003, 6.090270996000072 ], [ 0.455688477000024, 6.093078613000102 ], [ 0.455322266, 6.096923828 ], [ 0.453308105000076, 6.101928711000141 ], [ 0.454101562000062, 6.106506348000096 ], [ 0.453125000000114, 6.11071777300009 ], [ 0.453308105000076, 6.115112305000082 ], [ 0.455871582000157, 6.119873047000169 ], [ 0.458312988000046, 6.122924805000082 ], [ 0.459716797000112, 6.125671387000125 ], [ 0.461120605000076, 6.129516602000081 ], [ 0.464721680000025, 6.13171386700003 ], [ 0.470275879000155, 6.127502441000104 ], [ 0.476928711000085, 6.124877930000139 ], [ 0.478088379000155, 6.12890625 ], [ 0.481506348000039, 6.125305176000154 ], [ 0.483886719000111, 6.129089355000133 ], [ 0.48571777300009, 6.131530762000068 ], [ 0.487915039000143, 6.13391113300014 ], [ 0.487121582000157, 6.138305664000029 ], [ 0.494506836000141, 6.144897461000028 ], [ 0.496887206999986, 6.149291992000087 ], [ 0.501098633000083, 6.153503418000184 ], [ 0.504516602000024, 6.157287598000153 ], [ 0.502502441000104, 6.161682129000042 ], [ 0.501281738000046, 6.166687012000125 ], [ 0.502319336000141, 6.17547607400013 ], [ 0.502929687000062, 6.178527832000043 ], [ 0.502929687000062, 6.182312012000125 ], [ 0.500488281000059, 6.184509277000132 ], [ 0.498718262000068, 6.1875 ], [ 0.499511719000054, 6.191284179999968 ], [ 0.499084473000096, 6.196289062 ], [ 0.495910645000038, 6.199279785000101 ], [ 0.491882324000073, 6.196472168000071 ], [ 0.487915039000143, 6.194274902000188 ], [ 0.481323241999974, 6.191284179999968 ], [ 0.478698730000076, 6.193481445000145 ], [ 0.476684570000089, 6.195922852000081 ], [ 0.47351074200003, 6.196716309000124 ], [ 0.469726562000062, 6.195922852000081 ], [ 0.467529297000056, 6.193725586000028 ], [ 0.463317871000129, 6.197875977000137 ], [ 0.456726074000187, 6.207702637000182 ], [ 0.451110840000069, 6.205688477000137 ], [ 0.447692871000186, 6.206298828000115 ], [ 0.442687988000046, 6.206298828000115 ], [ 0.439086914000143, 6.207092285000101 ], [ 0.438293457000157, 6.210876465000013 ], [ 0.44171142600004, 6.212890625000057 ], [ 0.444885254000098, 6.216125488000102 ], [ 0.445678711000141, 6.219482422000056 ], [ 0.452514648000033, 6.224121094000168 ], [ 0.455505371000129, 6.226074219 ], [ 0.457275391000053, 6.229492187 ], [ 0.459899902000075, 6.23468017600004 ], [ 0.469726562000062, 6.255676270000151 ], [ 0.472473145000038, 6.254516602000137 ], [ 0.475524902000018, 6.255126953000115 ], [ 0.477294922000112, 6.258728027000132 ], [ 0.476501465000126, 6.263305664000086 ], [ 0.472900391000053, 6.265502930000025 ], [ 0.468688965000126, 6.264892578000115 ], [ 0.466125487999989, 6.261474609 ], [ 0.462707519999981, 6.259887694999975 ], [ 0.458923340000069, 6.262329102000137 ], [ 0.430725097999982, 6.263671875000114 ], [ 0.425720215000069, 6.262878418000071 ], [ 0.422302246000129, 6.26007080100004 ], [ 0.416687012000068, 6.261291504000042 ], [ 0.415710449000187, 6.26531982400013 ], [ 0.415100098000039, 6.268493652000188 ], [ 0.414306641, 6.272094726999967 ], [ 0.412475586000141, 6.275878906000173 ], [ 0.408874512000068, 6.277709961000085 ], [ 0.406494141, 6.279907227000137 ], [ 0.404479980000076, 6.283325195000145 ], [ 0.404907226999967, 6.286682129000098 ], [ 0.403503418000071, 6.289306641000167 ], [ 0.400878906, 6.292907715000069 ], [ 0.397094726999967, 6.295288086000085 ], [ 0.395080566000047, 6.29852294900013 ], [ 0.392517090000069, 6.30108642600004 ], [ 0.39007568400018, 6.3035278320001 ], [ 0.387329102000137, 6.304687500000114 ], [ 0.384094237999989, 6.305725097999982 ], [ 0.379516602000137, 6.307678223000039 ], [ 0.371520996000072, 6.303100586000085 ], [ 0.36749267600004, 6.304321289000086 ], [ 0.363891601999967, 6.305480957000157 ], [ 0.360717773000033, 6.307312012000011 ], [ 0.356689453000115, 6.309509277000188 ], [ 0.351928711000028, 6.311279297000112 ], [ 0.348083496000129, 6.312316895000151 ], [ 0.343505859000174, 6.313110351999967 ], [ 0.338500977000137, 6.314086914000143 ], [ 0.335083008000026, 6.316101074000187 ], [ 0.330078125000114, 6.318481445000032 ], [ 0.321716309000124, 6.3211059570001 ], [ 0.316711425999983, 6.324279784999987 ], [ 0.314086914000086, 6.326477051000097 ], [ 0.310913086000028, 6.329101562000062 ], [ 0.307922363000102, 6.33148193400001 ], [ 0.305114746000072, 6.333312987999989 ], [ 0.290283203000115, 6.333923340000069 ] ] ] } },
{ "type": "Feature", "properties": { "name": "South Tongu", "region": "Volta", "source": "OCHA COD-AB GHA ADM2", "in_original_pilot": false }, "geometry": { "type": "Polygon", "coordinates": [ [ [ 0.711213607000047, 5.773423932000185 ], [ 0.713317871000072, 5.775878906000116 ], [ 0.713317871000072, 5.779724121000186 ], [ 0.715698242000144, 5.782897949000073 ], [ 0.719482422000056, 5.783691406000116 ], [ 0.719116211000085, 5.787902832000043 ], [ 0.718078612999989, 5.791687012000125 ], [ 0.714904785000101, 5.792724609000118 ], [ 0.711914062, 5.793518066000104 ], [ 0.710693359, 5.799499512000125 ], [ 0.711914062, 5.804687500000057 ], [ 0.71429443400018, 5.808288574000073 ], [ 0.717529297000056, 5.810913086000028 ], [ 0.716125488000159, 5.816101074000073 ], [ 0.71429443400018, 5.818481445000145 ], [ 0.713317871000072, 5.822875977000137 ], [ 0.71112060500019, 5.826904297000169 ], [ 0.710083008000026, 5.830078125000057 ], [ 0.711486816000047, 5.832885742000087 ], [ 0.712707520000151, 5.836730957000043 ], [ 0.713928223000153, 5.840515137000125 ], [ 0.713073730000076, 5.843322753999985 ], [ 0.713928223000153, 5.846923828000058 ], [ 0.7136840820001, 5.851074219 ], [ 0.712890625000114, 5.854492187 ], [ 0.715270996000129, 5.858886719000168 ], [ 0.716918945000145, 5.862670898000033 ], [ 0.718322754000042, 5.865905762000182 ], [ 0.719482422000056, 5.869873047000056 ], [ 0.722473144999981, 5.872070312000062 ], [ 0.725708008000026, 5.873107910000101 ], [ 0.728698730000019, 5.874328613000102 ], [ 0.733276366999974, 5.875488281000116 ], [ 0.740112305000025, 5.877685547000056 ], [ 0.746704101999967, 5.879272461000085 ], [ 0.748901367000144, 5.876892090000013 ], [ 0.752929687000062, 5.874084473000153 ], [ 0.757507324000187, 5.872924805000139 ], [ 0.762695312000062, 5.873901367000087 ], [ 0.766723633000026, 5.874877930000025 ], [ 0.770690918000128, 5.876525879000042 ], [ 0.781311035000158, 5.882324219000168 ], [ 0.784118652000188, 5.885498047000056 ], [ 0.783081055000082, 5.888671875000114 ], [ 0.783325195000032, 5.893127441000161 ], [ 0.782897949000187, 5.898498535000101 ], [ 0.782104491999974, 5.901672362999989 ], [ 0.782714844000054, 5.904479980000019 ], [ 0.787292480000076, 5.907470703000115 ], [ 0.78649902300009, 5.911926270000095 ], [ 0.782897949000187, 5.915100097999982 ], [ 0.782470703000172, 5.918518066 ], [ 0.779113770000151, 5.921081543000071 ], [ 0.776123047000056, 5.922485351999967 ], [ 0.776306152000018, 5.92608642600004 ], [ 0.772521972999982, 5.924072266 ], [ 0.768493652000018, 5.923889160000158 ], [ 0.764709473000039, 5.925109863000159 ], [ 0.762084961000085, 5.927673340000069 ], [ 0.763488769999981, 5.932128906000116 ], [ 0.76593017600004, 5.9382934570001 ], [ 0.766723633000026, 5.942077637000068 ], [ 0.76647949200003, 5.944885254000098 ], [ 0.76531982400013, 5.947509766000167 ], [ 0.76507568400001, 5.950500487999989 ], [ 0.766296387000068, 5.9539184570001 ], [ 0.762878418000128, 5.957275391000053 ], [ 0.759887695000032, 5.962524414000086 ], [ 0.756896973000039, 5.966308594000054 ], [ 0.7546997070001, 5.969116211000085 ], [ 0.750488281000173, 5.968688965000069 ], [ 0.745117187000062, 5.969116211000085 ], [ 0.740722656000173, 5.968872070000032 ], [ 0.737487793000128, 5.971130371000129 ], [ 0.734130859000174, 5.974121094000054 ], [ 0.730529785000101, 5.975708008000083 ], [ 0.7293090820001, 5.9793090820001 ], [ 0.724487305000025, 5.983520508000026 ], [ 0.719909668000071, 5.985473633000083 ], [ 0.715881348000039, 5.986694336000085 ], [ 0.711914062, 5.988708496000129 ], [ 0.707275391, 5.98992919900013 ], [ 0.705322266000167, 5.993286133000083 ], [ 0.707702637000182, 5.99749755900001 ], [ 0.707702637000182, 6.001098633000083 ], [ 0.70928955100004, 6.005493164000143 ], [ 0.710876465000069, 6.009704590000069 ], [ 0.711486816000047, 6.014526366999974 ], [ 0.714721679999968, 6.015319824000187 ], [ 0.717712402000188, 6.018310547000112 ], [ 0.721679687000062, 6.019714355000076 ], [ 0.72430419900013, 6.022094727000024 ], [ 0.728698730000019, 6.02429199200003 ], [ 0.731506347999982, 6.026672363000046 ], [ 0.731506347999982, 6.029907227000024 ], [ 0.731689453000115, 6.033508301000097 ], [ 0.735900879000098, 6.03851318400001 ], [ 0.738891601999967, 6.042907715000126 ], [ 0.741516113000159, 6.045471191000104 ], [ 0.744079590000069, 6.047302246000186 ], [ 0.747314453000115, 6.049926758000083 ], [ 0.748718262000182, 6.052673340000126 ], [ 0.750671387000068, 6.054870605000133 ], [ 0.751281738000046, 6.058471680000082 ], [ 0.751892090000069, 6.061706543000128 ], [ 0.754089355000076, 6.064514159999987 ], [ 0.7546997070001, 6.068115234000061 ], [ 0.755126953000115, 6.071716309000067 ], [ 0.753479004000098, 6.075317383000083 ], [ 0.752075195000032, 6.07952880900001 ], [ 0.752075195000032, 6.08288574200003 ], [ 0.750915527000188, 6.087280273000147 ], [ 0.74749755900018, 6.09008789100011 ], [ 0.746704101999967, 6.09289550800014 ], [ 0.741271973000039, 6.095886230000133 ], [ 0.73767089800009, 6.098327637000068 ], [ 0.734130859000174, 6.100524902000075 ], [ 0.731689453000115, 6.103881836000028 ], [ 0.730285645000151, 6.107116699000073 ], [ 0.728515625000057, 6.11071777300009 ], [ 0.725280762000011, 6.114501953000058 ], [ 0.723693847999982, 6.117492676000154 ], [ 0.719482422000056, 6.120483398000147 ], [ 0.720520020000151, 6.125122070000089 ], [ 0.722473144999981, 6.127929687000119 ], [ 0.72430419900013, 6.130676270000095 ], [ 0.724487305000025, 6.134704590000126 ], [ 0.724487305000025, 6.138488770000095 ], [ 0.72430419900013, 6.143920898000147 ], [ 0.722717285000101, 6.147521973000096 ], [ 0.721313477000137, 6.15148925799997 ], [ 0.719299316000047, 6.155090332000043 ], [ 0.715270996000129, 6.155090332000043 ], [ 0.712280273000033, 6.155273437000176 ], [ 0.708923340000013, 6.155273437000176 ], [ 0.706909179999968, 6.151306152000132 ], [ 0.70648193400018, 6.147888184000124 ], [ 0.705688476999967, 6.144104003999985 ], [ 0.704101562000062, 6.140502930000139 ], [ 0.702270508000083, 6.137695312000176 ], [ 0.700500488000159, 6.135070801000154 ], [ 0.698730469000168, 6.132690430000139 ], [ 0.694702148000033, 6.126708984000118 ], [ 0.692321777000132, 6.123474121000072 ], [ 0.689086914000086, 6.120727539000029 ], [ 0.686279297000056, 6.11828613300014 ], [ 0.683471680000025, 6.116516113000046 ], [ 0.679870605000019, 6.114501953000058 ], [ 0.678283691, 6.111511230000133 ], [ 0.675292969, 6.10852050800014 ], [ 0.670898437, 6.106689453000058 ], [ 0.667297363000159, 6.108886719000111 ], [ 0.664489746000072, 6.111877441000161 ], [ 0.659912109000174, 6.112670898000147 ], [ 0.656127930000139, 6.11071777300009 ], [ 0.6550903320001, 6.107482910000044 ], [ 0.652893066000161, 6.104309081999986 ], [ 0.649475098000153, 6.101928711000141 ], [ 0.643920898000147, 6.09851074200003 ], [ 0.639282227000137, 6.096679687000176 ], [ 0.636291504000042, 6.095703125000171 ], [ 0.633117676000154, 6.094482422000169 ], [ 0.630126953000058, 6.094116211000141 ], [ 0.626525878999985, 6.095703125000171 ], [ 0.625122070000089, 6.099121094000111 ], [ 0.622314453000058, 6.102722168000128 ], [ 0.617919922000169, 6.106506348000096 ], [ 0.608276367000087, 6.106506348000096 ], [ 0.604492187000176, 6.104919434000067 ], [ 0.601318359000118, 6.102722168000128 ], [ 0.597290039000029, 6.100524902000075 ], [ 0.588684082000043, 6.085876465000126 ], [ 0.587524414000029, 6.08227539100011 ], [ 0.587097168000184, 6.078918457000157 ], [ 0.583496094000111, 6.07952880900001 ], [ 0.579895020000095, 6.080078125 ], [ 0.571472168000014, 6.081909180000082 ], [ 0.565673828000058, 6.08288574200003 ], [ 0.561523437000119, 6.083679199000073 ], [ 0.557312012000125, 6.084716797000112 ], [ 0.552673340000183, 6.080871582000043 ], [ 0.552490234000118, 6.076477051000154 ], [ 0.552917480000133, 6.073303223000096 ], [ 0.553100585999971, 6.06970214800009 ], [ 0.553283691000104, 6.066284180000082 ], [ 0.553283691000104, 6.063110352000024 ], [ 0.553527832000157, 6.058898926000097 ], [ 0.554321289000029, 6.055297852000024 ], [ 0.553894043000184, 6.052307129000098 ], [ 0.552307129000155, 6.048095703 ], [ 0.550292969000111, 6.044677734000118 ], [ 0.549926758000083, 6.041687012000068 ], [ 0.548706055000082, 6.037475586000141 ], [ 0.550720215000126, 6.030273437000119 ], [ 0.549926758000083, 6.0203247070001 ], [ 0.550903320000089, 6.017089844000054 ], [ 0.54907226600011, 6.007690430000082 ], [ 0.541076660000044, 6.007080078000172 ], [ 0.532287598000096, 6.005493164000143 ], [ 0.525512695000089, 6.002929687000062 ], [ 0.522094727000081, 6.002075195000032 ], [ 0.518127441000047, 6.001892090000069 ], [ 0.515319824000017, 6.002929687000062 ], [ 0.510314941000104, 6.003112793000128 ], [ 0.506896973000096, 6.00329589800009 ], [ 0.504272460999971, 6.004882812000119 ], [ 0.500305176000097, 6.00811767600004 ], [ 0.496704102000024, 6.009277344000111 ], [ 0.497680664000029, 6.005676270000038 ], [ 0.499511719000054, 6.002502441000047 ], [ 0.496520996000186, 5.999694824000187 ], [ 0.497497559000067, 5.996887207000157 ], [ 0.500305176000097, 5.995117187000062 ], [ 0.499084473000096, 5.99108886700003 ], [ 0.502075195000089, 5.98968505900001 ], [ 0.507690430000082, 5.988525391000167 ], [ 0.510498047000112, 5.985717773000033 ], [ 0.513305663999972, 5.98327636700003 ], [ 0.516723633000083, 5.982299805000025 ], [ 0.520690918000184, 5.980712891 ], [ 0.525329590000126, 5.977905273000033 ], [ 0.524902344000111, 5.9714965820001 ], [ 0.524719238000046, 5.967895508000083 ], [ 0.524475098000096, 5.962890625000114 ], [ 0.52429199200003, 5.958923340000069 ], [ 0.524719238000046, 5.954895020000151 ], [ 0.528320312000119, 5.953125 ], [ 0.534118652000075, 5.953308105000019 ], [ 0.538696289000029, 5.951904297000056 ], [ 0.542297363000102, 5.94891357400013 ], [ 0.545288085999971, 5.943115234000174 ], [ 0.546691895000038, 5.939086914000143 ], [ 0.548889160000044, 5.934692383000026 ], [ 0.549682617000087, 5.931701660000158 ], [ 0.551086426000154, 5.9285278320001 ], [ 0.548889160000044, 5.924499512000182 ], [ 0.551696777000075, 5.921508789000086 ], [ 0.553710937000119, 5.926513672000056 ], [ 0.556091309000067, 5.929687500000114 ], [ 0.557678223000096, 5.935119629000042 ], [ 0.560485840000183, 5.939880371000129 ], [ 0.564270020000095, 5.93890380900018 ], [ 0.568115234000118, 5.934082031000173 ], [ 0.57250976600011, 5.931274414000143 ], [ 0.576721191000104, 5.932128906000116 ], [ 0.579101562000176, 5.929321289000086 ], [ 0.582702637000125, 5.926696777000188 ], [ 0.583923340000126, 5.924072266 ], [ 0.586486816000161, 5.921508789000086 ], [ 0.587097168000184, 5.91827392600004 ], [ 0.587280273000147, 5.914306641000167 ], [ 0.583923340000126, 5.912292480000019 ], [ 0.581298828000058, 5.910888672000056 ], [ 0.577880859000118, 5.905700684000124 ], [ 0.575683594000168, 5.901672362999989 ], [ 0.584899902000132, 5.895080566000047 ], [ 0.594909668000184, 5.89031982400013 ], [ 0.599304199000073, 5.890686035000101 ], [ 0.601684570000145, 5.888671875000114 ], [ 0.603515625, 5.886291504000042 ], [ 0.605285645000095, 5.884094238000159 ], [ 0.606079102000137, 5.879882812000062 ], [ 0.607116699000073, 5.877319336000028 ], [ 0.611328125, 5.876098633000026 ], [ 0.614074707000043, 5.875305175999983 ], [ 0.612487793000014, 5.872924805000139 ], [ 0.612670897999976, 5.869873047000056 ], [ 0.613281250000057, 5.866699219000168 ], [ 0.61547851600011, 5.864685059000124 ], [ 0.619506836000028, 5.865295410000101 ], [ 0.623718262000125, 5.866088867000144 ], [ 0.626708984000118, 5.867492675999983 ], [ 0.630126953000058, 5.867492675999983 ], [ 0.629699707000043, 5.863891602000137 ], [ 0.625305176000154, 5.862121582000043 ], [ 0.62329101600011, 5.858703613000102 ], [ 0.62127685500019, 5.856323242000087 ], [ 0.619506836000028, 5.852905272999976 ], [ 0.619323730000133, 5.848876953000115 ], [ 0.619323730000133, 5.843505859000118 ], [ 0.620300293000014, 5.839904785000101 ], [ 0.620300293000014, 5.836120605000133 ], [ 0.622680664000086, 5.834289550999983 ], [ 0.630126953000058, 5.836486816000161 ], [ 0.643310547, 5.840515137000125 ], [ 0.646301270000095, 5.837280272999976 ], [ 0.649475098000153, 5.834472656000116 ], [ 0.652526855000133, 5.8308715820001 ], [ 0.654113770000095, 5.827697754000042 ], [ 0.654296875000057, 5.824707031000116 ], [ 0.654113770000095, 5.82049560500019 ], [ 0.651672363000159, 5.80688476600011 ], [ 0.653503418000071, 5.804504395000095 ], [ 0.670898437, 5.798278809000124 ], [ 0.673706054999968, 5.79711914100011 ], [ 0.678710937, 5.794128418000184 ], [ 0.680908203000115, 5.790893555000139 ], [ 0.682495117000144, 5.787719727000081 ], [ 0.684692383000026, 5.783691406000116 ], [ 0.685913086000028, 5.780517578000058 ], [ 0.6875, 5.777099609000118 ], [ 0.691894531000173, 5.776123047000112 ], [ 0.695678711000085, 5.774291992000087 ], [ 0.699279785000158, 5.774719238000046 ], [ 0.70147705100004, 5.777709960999971 ], [ 0.704711914000086, 5.779479980000133 ], [ 0.707275391, 5.775878906000116 ], [ 0.710992216000136, 5.773401023000133 ], [ 0.711213607000047, 5.773423932000185 ] ] ] } }
]
}
