{
  "type": "Feature",
  "properties": {
    "name": "Lower Volta extended coverage"
  },
  "geometry": {
    "type": "Polygon",
    "coordinates": [
      [
        [
          0.680725098000153,
          5.775329590000126
        ],
        [
          0.676513672,
          5.776123047000112
        ],
        [
          0.679687500000057,
          5.771728516000053
        ],
        [
          0.67791748000019,
          5.769287109000118
        ],
        [
          0.674682617000144,
          5.76867675799997
        ],
        [
          0.67010498000019,
          5.768493652000132
        ],
        [
          0.666320801000154,
          5.76892089800009
        ],
        [
          0.661315918000014,
          5.769104004000155
        ],
        [
          0.656311035000101,
          5.769714355000133
        ],
        [
          0.650878906000116,
          5.770324706999986
        ],
        [
          0.645874023000033,
          5.771301270000038
        ],
        [
          0.641906738000102,
          5.772277832000043
        ],
        [
          0.637329102000081,
          5.772705078000058
        ],
        [
          0.633300781000116,
          5.773071289000029
        ],
        [
          0.626525878999985,
          5.774108887000125
        ],
        [
          0.623474121000072,
          5.774108887000125
        ],
        [
          0.619689941000161,
          5.774719238000046
        ],
        [
          0.605895996000072,
          5.776306152000075
        ],
        [
          0.599121094000111,
          5.776672363000102
        ],
        [
          0.595092773000147,
          5.777282715000183
        ],
        [
          0.588684082000043,
          5.777526855000133
        ],
        [
          0.585693359000118,
          5.778076172000169
        ],
        [
          0.579711914000029,
          5.778686523000147
        ],
        [
          0.575683594000168,
          5.779113770000038
        ],
        [
          0.571472168000014,
          5.779479980000133
        ],
        [
          0.56469726600011,
          5.780090332000043
        ],
        [
          0.55969238300014,
          5.780700684000067
        ],
        [
          0.554504395000038,
          5.781127930000082
        ],
        [
          0.551330566000104,
          5.781127930000082
        ],
        [
          0.541320801000097,
          5.781677246000072
        ],
        [
          0.536315918000128,
          5.782104492000087
        ],
        [
          0.528930663999972,
          5.782714844000111
        ],
        [
          0.525512695000089,
          5.782897949000073
        ],
        [
          0.520874023000147,
          5.783874512000125
        ],
        [
          0.516296387000068,
          5.784729004000155
        ],
        [
          0.512695312000119,
          5.784729004000155
        ],
        [
          0.507690430000082,
          5.785522460999971
        ],
        [
          0.503906250000171,
          5.785705566000104
        ],
        [
          0.499877930000082,
          5.785705566000104
        ],
        [
          0.494873047000169,
          5.786315918000184
        ],
        [
          0.489318848000039,
          5.786499023000147
        ],
        [
          0.482482910000044,
          5.786926270000038
        ],
        [
          0.479492187000119,
          5.787109375
        ],
        [
          0.475097656000059,
          5.787475586000028
        ],
        [
          0.471679687000119,
          5.787902832000043
        ],
        [
          0.467712402000018,
          5.787902832000043
        ],
        [
          0.462890625000171,
          5.788513184000067
        ],
        [
          0.458496094000054,
          5.789672852000081
        ],
        [
          0.450317383000083,
          5.788879395000095
        ],
        [
          0.443115234000061,
          5.789123535000044
        ],
        [
          0.437500000000114,
          5.788696289000029
        ],
        [
          0.434692383000083,
          5.789123535000044
        ],
        [
          0.426696777000018,
          5.788879395000095
        ],
        [
          0.420471191000047,
          5.788696289000029
        ],
        [
          0.414489746000129,
          5.788330078
        ],
        [
          0.410522461000085,
          5.788330078
        ],
        [
          0.403686523000033,
          5.788085937000176
        ],
        [
          0.39093017600004,
          5.787475586000028
        ],
        [
          0.381286621000129,
          5.786926270000038
        ],
        [
          0.378295898000033,
          5.786926270000038
        ],
        [
          0.371704102000137,
          5.786499023000147
        ],
        [
          0.364501953000115,
          5.786071777000132
        ],
        [
          0.359497069999975,
          5.785705566000104
        ],
        [
          0.354675293000071,
          5.785522460999971
        ],
        [
          0.350708008000026,
          5.784912109000118
        ],
        [
          0.350708008000026,
          5.78930664100011
        ],
        [
          0.350891113000159,
          5.792480469000168
        ],
        [
          0.347900391000167,
          5.801330566000104
        ],
        [
          0.347290039000086,
          5.804687500000057
        ],
        [
          0.347106934000124,
          5.807678223000153
        ],
        [
          0.3464965820001,
          5.811279297
        ],
        [
          0.3464965820001,
          5.815490723000153
        ],
        [
          0.347290039000086,
          5.818725585999971
        ],
        [
          0.348083496000129,
          5.82250976600011
        ],
        [
          0.347900391000167,
          5.826904297000169
        ],
        [
          0.352478027000188,
          5.829895020000095
        ],
        [
          0.356323242000087,
          5.829284668000071
        ],
        [
          0.358093262000182,
          5.831726074000073
        ],
        [
          0.356506348000153,
          5.834899902000132
        ],
        [
          0.355285645000151,
          5.837524414000029
        ],
        [
          0.352111816,
          5.839111328000058
        ],
        [
          0.352905273000033,
          5.844299316000161
        ],
        [
          0.350891113000159,
          5.850097656000116
        ],
        [
          0.348876953000115,
          5.853515625000057
        ],
        [
          0.3464965820001,
          5.856323242000087
        ],
        [
          0.345886230000019,
          5.861694336000028
        ],
        [
          0.345703125000057,
          5.868103027000132
        ],
        [
          0.345886230000019,
          5.872070312000062
        ],
        [
          0.347106934000124,
          5.876708984000174
        ],
        [
          0.348510742000144,
          5.881286621000129
        ],
        [
          0.349914550999983,
          5.885681152000188
        ],
        [
          0.348876953000115,
          5.89288330100004
        ],
        [
          0.347106934000124,
          5.89788818400018
        ],
        [
          0.3464965820001,
          5.902893066
        ],
        [
          0.344482422000056,
          5.905700684000124
        ],
        [
          0.343322754000042,
          5.909484863000159
        ],
        [
          0.341674805000025,
          5.913330078000115
        ],
        [
          0.340087891000167,
          5.917907715000013
        ],
        [
          0.339721680000139,
          5.921691895000151
        ],
        [
          0.339477539000086,
          5.924682617000144
        ],
        [
          0.338317871000072,
          5.929504395000151
        ],
        [
          0.340881347999982,
          5.93572998000019
        ],
        [
          0.341308594000168,
          5.943908691000047
        ],
        [
          0.342712402000132,
          5.950073241999974
        ],
        [
          0.344482422000056,
          5.955505371000129
        ],
        [
          0.3464965820001,
          5.959106445000032
        ],
        [
          0.347717285000101,
          5.961914062000062
        ],
        [
          0.348510742000144,
          5.965087891
        ],
        [
          0.34930419900013,
          5.970275879000098
        ],
        [
          0.349670410000158,
          5.973083496000129
        ],
        [
          0.350280762000011,
          5.977111816000047
        ],
        [
          0.351684569999975,
          5.981689453000172
        ],
        [
          0.353088379000042,
          5.985900879000098
        ],
        [
          0.351074219000054,
          5.988098144999981
        ],
        [
          0.3464965820001,
          5.988098144999981
        ],
        [
          0.342712402000132,
          5.988708496000129
        ],
        [
          0.3386840820001,
          5.990722656000173
        ],
        [
          0.335327147999976,
          5.992675781000059
        ],
        [
          0.33148193400018,
          5.994873047000112
        ],
        [
          0.3308715820001,
          6.003479004000098
        ],
        [
          0.331909179999968,
          6.007080078000172
        ],
        [
          0.33428955100004,
          6.010681152000075
        ],
        [
          0.336303711000028,
          6.013916016
        ],
        [
          0.338317871000072,
          6.016906738000046
        ],
        [
          0.340515137000182,
          6.019287109000061
        ],
        [
          0.343872070000032,
          6.021301270000038
        ],
        [
          0.347717285000101,
          6.022277832000157
        ],
        [
          0.345703125000057,
          6.025085449000017
        ],
        [
          0.343322754000042,
          6.026916504000098
        ],
        [
          0.339904785000101,
          6.029113769999981
        ],
        [
          0.337097168000071,
          6.030883788999972
        ],
        [
          0.33428955100004,
          6.033081055000082
        ],
        [
          0.332092285000101,
          6.034912109000061
        ],
        [
          0.332519531000116,
          6.038085937000119
        ],
        [
          0.335876465000069,
          6.040893555000082
        ],
        [
          0.337524414000086,
          6.047302246000186
        ],
        [
          0.334716797,
          6.048522949000187
        ],
        [
          0.33172607400013,
          6.04968261700003
        ],
        [
          0.328918457000043,
          6.050720215000069
        ],
        [
          0.326110840000183,
          6.051696777000075
        ],
        [
          0.321105957000043,
          6.053100586000141
        ],
        [
          0.316528320000145,
          6.053527832000157
        ],
        [
          0.313476562000062,
          6.053710937000119
        ],
        [
          0.309692383000026,
          6.05407714800009
        ],
        [
          0.306701660000101,
          6.054321289000143
        ],
        [
          0.303710937000176,
          6.054687500000171
        ],
        [
          0.300109863000102,
          6.055114746000186
        ],
        [
          0.29711914100011,
          6.056518555000082
        ],
        [
          0.293701172,
          6.059082031000059
        ],
        [
          0.290100098000153,
          6.063110352000024
        ],
        [
          0.289123535000044,
          6.067077637000125
        ],
        [
          0.288513184000124,
          6.071472168000184
        ],
        [
          0.288085937,
          6.074279785000044
        ],
        [
          0.287109375000057,
          6.077087402000075
        ],
        [
          0.284912109000118,
          6.080688477000081
        ],
        [
          0.281127930000139,
          6.084106445000089
        ],
        [
          0.277282715000183,
          6.086914062000119
        ],
        [
          0.274475098000153,
          6.089721680000082
        ],
        [
          0.267883300999983,
          6.094299316000104
        ],
        [
          0.265502930000139,
          6.095703125000171
        ],
        [
          0.262084961000028,
          6.096679687000176
        ],
        [
          0.259094238000102,
          6.098083496000015
        ],
        [
          0.254882812000176,
          6.099670410000044
        ],
        [
          0.247924805000082,
          6.105712891000053
        ],
        [
          0.241088867000087,
          6.107482910000044
        ],
        [
          0.238281250000057,
          6.108093262000125
        ],
        [
          0.234680176000154,
          6.109680176000154
        ],
        [
          0.23071289100011,
          6.108276367000087
        ],
        [
          0.222106934000067,
          6.104675293000184
        ],
        [
          0.216674805000139,
          6.104125977000024
        ],
        [
          0.213073730000133,
          6.103698730000133
        ],
        [
          0.206481934000067,
          6.103271484000118
        ],
        [
          0.203308105000133,
          6.101928711000141
        ],
        [
          0.193481445000089,
          6.097473145000095
        ],
        [
          0.19030761700003,
          6.096923828
        ],
        [
          0.186096191000104,
          6.097717285000044
        ],
        [
          0.18188476600011,
          6.099487305000082
        ],
        [
          0.177917480000076,
          6.100280762000125
        ],
        [
          0.174499512000068,
          6.100891113000102
        ],
        [
          0.171691895000038,
          6.101501465000126
        ],
        [
          0.168273926000154,
          6.102478027000132
        ],
        [
          0.164306641000053,
          6.103515625000171
        ],
        [
          0.159484863000046,
          6.105102539000029
        ],
        [
          0.154907227000024,
          6.106689453000058
        ],
        [
          0.150329590000069,
          6.108276367000087
        ],
        [
          0.146484375000171,
          6.109313965000126
        ],
        [
          0.144470215000126,
          6.106079102000081
        ],
        [
          0.143127441000047,
          6.100891113000102
        ],
        [
          0.140502930000082,
          6.099670410000044
        ],
        [
          0.134277344000111,
          6.099914551000097
        ],
        [
          0.129699707000157,
          6.097473145000095
        ],
        [
          0.125488281000059,
          6.095520020000038
        ],
        [
          0.122924805000025,
          6.096923828
        ],
        [
          0.119323730000076,
          6.096679687000176
        ],
        [
          0.1121215820001,
          6.095092773000147
        ],
        [
          0.103515625000114,
          6.094482422000169
        ],
        [
          0.099121094000054,
          6.094116211000141
        ],
        [
          0.094909668000128,
          6.093872070000089
        ],
        [
          0.093322754000098,
          6.102111816000104
        ],
        [
          0.08929443400001,
          6.103271484000118
        ],
        [
          0.086303711000085,
          6.098876953000058
        ],
        [
          0.084472656000059,
          6.093505859000118
        ],
        [
          0.077880859000061,
          6.093322754000155
        ],
        [
          0.074279784999987,
          6.093078613000102
        ],
        [
          0.069885254000098,
          6.093078613000102
        ],
        [
          0.064270020000038,
          6.093322754000155
        ],
        [
          0.061523437000062,
          6.093872070000089
        ],
        [
          0.058105469000054,
          6.095520020000038
        ],
        [
          0.051696777000188,
          6.094726562000119
        ],
        [
          0.04852294900013,
          6.093322754000155
        ],
        [
          0.044128418000071,
          6.093688965000126
        ],
        [
          0.042114258000026,
          6.096923828
        ],
        [
          0.040893555000025,
          6.100524902000075
        ],
        [
          0.037719727000137,
          6.102478027000132
        ],
        [
          0.033691406000173,
          6.101318359000061
        ],
        [
          0.029724121000072,
          6.097900391000053
        ],
        [
          0.024291992000144,
          6.099121094000111
        ],
        [
          0.019897461000085,
          6.099487305000082
        ],
        [
          0.015686035000158,
          6.099670410000044
        ],
        [
          0.011718750000057,
          6.100524902000075
        ],
        [
          0.006896972999982,
          6.101928711000141
        ],
        [
          0.002075195000032,
          6.104125977000024
        ],
        [
          0.001281738000159,
          6.107482910000044
        ],
        [
          0.002502441,
          6.111511230000133
        ],
        [
          -0.000793456999929,
          6.113708496000015
        ],
        [
          -0.004089354999962,
          6.114501953000058
        ],
        [
          -0.006591796999885,
          6.117309570000089
        ],
        [
          -0.0070190429999,
          6.120300293000184
        ],
        [
          -0.01037597699991,
          6.12329101600011
        ],
        [
          -0.016479491999917,
          6.122680664000029
        ],
        [
          -0.019775390999939,
          6.12329101600011
        ],
        [
          -0.023010253999814,
          6.124511719000111
        ],
        [
          -0.02648925799997,
          6.125488281000116
        ],
        [
          -0.031188964999899,
          6.125305176000154
        ],
        [
          -0.034118651999904,
          6.129089355000133
        ],
        [
          -0.036926269999867,
          6.131286621000072
        ],
        [
          -0.041381835999857,
          6.137695312000176
        ],
        [
          -0.038696288999972,
          6.140319824000073
        ],
        [
          -0.038513183999896,
          6.144104003999985
        ],
        [
          -0.040893554999968,
          6.147521973000096
        ],
        [
          -0.044494628999928,
          6.150695801000154
        ],
        [
          -0.045104979999962,
          6.157714844000111
        ],
        [
          -0.049499511999954,
          6.157104492000087
        ],
        [
          -0.052917479999962,
          6.155273437000176
        ],
        [
          -0.053222655999889,
          6.150512695000089
        ],
        [
          -0.055786132999913,
          6.147094727000081
        ],
        [
          -0.060607909999817,
          6.144897461000028
        ],
        [
          -0.064208983999947,
          6.14367675799997
        ],
        [
          -0.067382812999938,
          6.14367675799997
        ],
        [
          -0.069885253999928,
          6.146118164000029
        ],
        [
          -0.06701660199991,
          6.149291992000087
        ],
        [
          -0.065795897999976,
          6.15447998000019
        ],
        [
          -0.067810058999953,
          6.157470703000115
        ],
        [
          -0.072021483999947,
          6.158691406000116
        ],
        [
          -0.076110839999899,
          6.158874512000182
        ],
        [
          -0.077392577999831,
          6.163513184000067
        ],
        [
          -0.078918456999872,
          6.167724609000118
        ],
        [
          -0.082092284999931,
          6.172302246000072
        ],
        [
          -0.085815429999968,
          6.176513672000169
        ],
        [
          -0.088012694999975,
          6.179077147999976
        ],
        [
          -0.089721679999968,
          6.181701660000101
        ],
        [
          -0.089294433999953,
          6.184692383000026
        ],
        [
          -0.088684081999816,
          6.188293457000043
        ],
        [
          -0.087219237999932,
          6.192077637000182
        ],
        [
          -0.085388183999953,
          6.195129395000095
        ],
        [
          -0.084777831999929,
          6.199279785000101
        ],
        [
          -0.083618163999972,
          6.202270508000026
        ],
        [
          -0.081298827999888,
          6.2058715820001
        ],
        [
          -0.07788085899989,
          6.208496094000168
        ],
        [
          -0.074218749999943,
          6.211914062000176
        ],
        [
          -0.071899413999972,
          6.217102050999983
        ],
        [
          -0.080383300999927,
          6.217529297000169
        ],
        [
          -0.085327147999976,
          6.223510742000087
        ],
        [
          -0.086181640999882,
          6.228515625000057
        ],
        [
          -0.083923339999899,
          6.234130859000118
        ],
        [
          -0.080688476999967,
          6.235900879000042
        ],
        [
          -0.07788085899989,
          6.238098145000151
        ],
        [
          -0.075500487999932,
          6.24188232400013
        ],
        [
          -0.072387694999975,
          6.244689941
        ],
        [
          -0.067077636999898,
          6.248291016000167
        ],
        [
          -0.058593749999943,
          6.252929687000176
        ],
        [
          -0.056579589999842,
          6.258300781000173
        ],
        [
          -0.053222655999889,
          6.263488770000151
        ],
        [
          -0.047912597999925,
          6.270690918000071
        ],
        [
          -0.042785644999924,
          6.278503418000071
        ],
        [
          -0.040710448999903,
          6.286682129000098
        ],
        [
          -0.036499022999976,
          6.304504395000151
        ],
        [
          -0.029113769999867,
          6.318725586000085
        ],
        [
          -0.022521972999925,
          6.325683594000054
        ],
        [
          -0.017089843999941,
          6.332092285000158
        ],
        [
          -0.011718749999829,
          6.362304687000062
        ],
        [
          -0.007629394999867,
          6.385070801000097
        ],
        [
          -0.004211425999927,
          6.402099609000061
        ],
        [
          -0.004821776999904,
          6.420104980000133
        ],
        [
          -0.003906249999943,
          6.450683594000111
        ],
        [
          -0.001525878999871,
          6.483093262000125
        ],
        [
          0.002502441,
          6.536315918000014
        ],
        [
          0.104492187000119,
          6.566894531000116
        ],
        [
          0.125671387000068,
          6.574523926000154
        ],
        [
          0.128723144999981,
          6.575500488000159
        ],
        [
          0.138916016000053,
          6.576721191000161
        ],
        [
          0.152709961000141,
          6.577087402000188
        ],
        [
          0.157897949000017,
          6.573730469000168
        ],
        [
          0.162902832000157,
          6.570312500000057
        ],
        [
          0.169128418000128,
          6.568908691000161
        ],
        [
          0.172485352000081,
          6.568115234000174
        ],
        [
          0.17712402300009,
          6.567321777000132
        ],
        [
          0.183471680000139,
          6.566711425999983
        ],
        [
          0.187316895000038,
          6.567871094
        ],
        [
          0.19030761700003,
          6.56610107400013
        ],
        [
          0.193481445000089,
          6.563903809000124
        ],
        [
          0.195495605000133,
          6.560119629000042
        ],
        [
          0.195129395000038,
          6.555725098000096
        ],
        [
          0.197875977000081,
          6.554321289000029
        ],
        [
          0.199279785000044,
          6.549499512000182
        ],
        [
          0.197875977000081,
          6.546081543000071
        ],
        [
          0.197509766000053,
          6.542907715000183
        ],
        [
          0.195678711000028,
          6.539489746000072
        ],
        [
          0.193481445000089,
          6.534912109000118
        ],
        [
          0.190917969000111,
          6.530700684000124
        ],
        [
          0.188110352000024,
          6.526489258000026
        ],
        [
          0.18249511700003,
          6.520080566000161
        ],
        [
          0.179870605000133,
          6.515075684000124
        ],
        [
          0.178283691000104,
          6.512512207000043
        ],
        [
          0.178527832000157,
          6.508728027000075
        ],
        [
          0.178894043000184,
          6.504516602000081
        ],
        [
          0.181091309000067,
          6.502685547
        ],
        [
          0.181518555000082,
          6.498901367000087
        ],
        [
          0.182128906000059,
          6.495727539000029
        ],
        [
          0.181091309000067,
          6.491882324000073
        ],
        [
          0.179504395000038,
          6.487915039000029
        ],
        [
          0.182128906000059,
          6.485107422000169
        ],
        [
          0.185485840000126,
          6.48352050800014
        ],
        [
          0.187500000000171,
          6.481079102000081
        ],
        [
          0.188903809000067,
          6.476318359000118
        ],
        [
          0.187072753999985,
          6.472717285000044
        ],
        [
          0.185302734000118,
          6.469116210999971
        ],
        [
          0.183898926000097,
          6.465515137000125
        ],
        [
          0.184326172000112,
          6.461730957000157
        ],
        [
          0.185913086000141,
          6.445495605000133
        ],
        [
          0.186279297000169,
          6.441711426000097
        ],
        [
          0.184875488000102,
          6.436523437000119
        ],
        [
          0.182678223000096,
          6.431091309000067
        ],
        [
          0.180297852000081,
          6.427673340000126
        ],
        [
          0.178283691000104,
          6.42468261700003
        ],
        [
          0.189270020000095,
          6.415283203000058
        ],
        [
          0.192077637000125,
          6.414306641000053
        ],
        [
          0.19470214800009,
          6.412902832000157
        ],
        [
          0.198486328000058,
          6.410705566000104
        ],
        [
          0.200683594000111,
          6.408874512000125
        ],
        [
          0.203308105000133,
          6.407287598000096
        ],
        [
          0.206481934000067,
          6.404907227000024
        ],
        [
          0.209289551000154,
          6.402282715000126
        ],
        [
          0.208923340000126,
          6.398071289000029
        ],
        [
          0.211120605000133,
          6.39367675800014
        ],
        [
          0.215515137000125,
          6.389282227000024
        ],
        [
          0.215515137000125,
          6.383911133000083
        ],
        [
          0.213317871000186,
          6.379516602000024
        ],
        [
          0.210510254000155,
          6.377685547000112
        ],
        [
          0.207519531000059,
          6.376098633000083
        ],
        [
          0.205505371000015,
          6.372680663999972
        ],
        [
          0.202880859000118,
          6.371276855000133
        ],
        [
          0.200073242000087,
          6.370300293000128
        ],
        [
          0.200927734000061,
          6.366882324000017
        ],
        [
          0.20227050799997,
          6.362304687000062
        ],
        [
          0.204284668000184,
          6.35772705100004
        ],
        [
          0.201477051000154,
          6.356506348000039
        ],
        [
          0.200500488000102,
          6.353515625000114
        ],
        [
          0.196716309000067,
          6.353515625000114
        ],
        [
          0.193908691000104,
          6.349670410000044
        ],
        [
          0.191711426000097,
          6.346923828000115
        ],
        [
          0.188720703,
          6.34509277300009
        ],
        [
          0.186279297000169,
          6.342712402000018
        ],
        [
          0.185913086000141,
          6.339477538999972
        ],
        [
          0.180480957000043,
          6.339904785000158
        ],
        [
          0.178100586000141,
          6.336120605000076
        ],
        [
          0.176086426000097,
          6.333312987999989
        ],
        [
          0.173889160000044,
          6.330871582000157
        ],
        [
          0.181701660000044,
          6.330871582000157
        ],
        [
          0.187316895000038,
          6.332702637000068
        ],
        [
          0.190490723000096,
          6.333496094000054
        ],
        [
          0.197692871000015,
          6.333923340000069
        ],
        [
          0.200683594000111,
          6.333923340000069
        ],
        [
          0.209899902000075,
          6.333923340000069
        ],
        [
          0.218322754000155,
          6.333679199000187
        ],
        [
          0.228515625000171,
          6.333679199000187
        ],
        [
          0.236511230000133,
          6.333679199000187
        ],
        [
          0.245483398000147,
          6.333679199000187
        ],
        [
          0.258728027000075,
          6.333923340000069
        ],
        [
          0.272888184000124,
          6.333923340000069
        ],
        [
          0.282470703000115,
          6.333923340000069
        ],
        [
          0.290283203000115,
          6.333923340000069
        ],
        [
          0.305114746000072,
          6.333312987999989
        ],
        [
          0.307922363000102,
          6.33148193400001
        ],
        [
          0.310913086000028,
          6.329101562000062
        ],
        [
          0.314086914000086,
          6.326477051000097
        ],
        [
          0.316711425999983,
          6.324279784999987
        ],
        [
          0.321716309000124,
          6.3211059570001
        ],
        [
          0.330078125000114,
          6.318481445000032
        ],
        [
          0.335083008000026,
          6.316101074000187
        ],
        [
          0.338500977000137,
          6.314086914000143
        ],
        [
          0.343505859000174,
          6.313110351999967
        ],
        [
          0.348083496000129,
          6.312316895000151
        ],
        [
          0.351928711000028,
          6.311279297000112
        ],
        [
          0.356689453000115,
          6.309509277000188
        ],
        [
          0.360717773000033,
          6.307312012000011
        ],
        [
          0.363891601999967,
          6.305480957000157
        ],
        [
          0.36749267600004,
          6.304321289000086
        ],
        [
          0.371520996000072,
          6.303100586000085
        ],
        [
          0.379516602000137,
          6.307678223000039
        ],
        [
          0.384094237999989,
          6.305725097999982
        ],
        [
          0.387329102000137,
          6.304687500000114
        ],
        [
          0.39007568400018,
          6.3035278320001
        ],
        [
          0.392517090000069,
          6.30108642600004
        ],
        [
          0.395080566000047,
          6.29852294900013
        ],
        [
          0.397094726999967,
          6.295288086000085
        ],
        [
          0.400878906,
          6.292907715000069
        ],
        [
          0.403503418000071,
          6.289306641000167
        ],
        [
          0.404907226999967,
          6.286682129000098
        ],
        [
          0.404479980000076,
          6.283325195000145
        ],
        [
          0.406494141,
          6.279907227000137
        ],
        [
          0.408874512000068,
          6.277709961000085
        ],
        [
          0.412475586000141,
          6.275878906000173
        ],
        [
          0.414306641,
          6.272094726999967
        ],
        [
          0.415100098000039,
          6.268493652000188
        ],
        [
          0.415710449000187,
          6.26531982400013
        ],
        [
          0.416687012000068,
          6.261291504000042
        ],
        [
          0.422302246000129,
          6.26007080100004
        ],
        [
          0.425720215000069,
          6.262878418000071
        ],
        [
          0.424316406000173,
          6.267089844000054
        ],
        [
          0.425109862999989,
          6.271118164000086
        ],
        [
          0.426513672000056,
          6.27569580100004
        ],
        [
          0.426696777000018,
          6.278686523000033
        ],
        [
          0.428283691000047,
          6.281127929999968
        ],
        [
          0.430297852000024,
          6.283874512000068
        ],
        [
          0.432128906000173,
          6.286682129000098
        ],
        [
          0.43890380900018,
          6.28851318400018
        ],
        [
          0.443298340000069,
          6.289306641000167
        ],
        [
          0.447082520000038,
          6.289123535000101
        ],
        [
          0.451904297000112,
          6.287719727000137
        ],
        [
          0.455871582000157,
          6.288879394999981
        ],
        [
          0.458923340000069,
          6.292480469000054
        ],
        [
          0.461914062000062,
          6.296691895000151
        ],
        [
          0.466125487999989,
          6.300476074000187
        ],
        [
          0.47009277300009,
          6.302124023000033
        ],
        [
          0.474304199000187,
          6.300720215000069
        ],
        [
          0.480285645000038,
          6.301696777000188
        ],
        [
          0.484130859000061,
          6.302490234000061
        ],
        [
          0.488525391000053,
          6.30407714800009
        ],
        [
          0.492309570000032,
          6.304687500000114
        ],
        [
          0.495910645000038,
          6.30407714800009
        ],
        [
          0.498718262000068,
          6.303100586000085
        ],
        [
          0.502502441000104,
          6.301513672000056
        ],
        [
          0.506103516000053,
          6.300109863000159
        ],
        [
          0.508728027000075,
          6.29852294900013
        ],
        [
          0.511901855000133,
          6.297302246000129
        ],
        [
          0.514709473000039,
          6.296691895000151
        ],
        [
          0.518127441000047,
          6.296081543000128
        ],
        [
          0.521728516000053,
          6.295898437000062
        ],
        [
          0.526123047000112,
          6.29327392600004
        ],
        [
          0.530090331999986,
          6.29132080100004
        ],
        [
          0.533508301000097,
          6.289672852000024
        ],
        [
          0.535522461000141,
          6.287475586000085
        ],
        [
          0.538085937000119,
          6.284729004000042
        ],
        [
          0.543701172000169,
          6.282714844
        ],
        [
          0.544921875000171,
          6.286499023000033
        ],
        [
          0.546081543000184,
          6.291076660000158
        ],
        [
          0.548278809000067,
          6.29827880900018
        ],
        [
          0.552917480000133,
          6.297302246000129
        ],
        [
          0.557128906000059,
          6.297729492000144
        ],
        [
          0.561096191000104,
          6.299682616999974
        ],
        [
          0.565124512000068,
          6.300903320000032
        ],
        [
          0.569091797000169,
          6.301696777000188
        ],
        [
          0.575927734000118,
          6.302307129000098
        ],
        [
          0.57531738300014,
          6.29852294900013
        ],
        [
          0.572692871000072,
          6.29132080100004
        ],
        [
          0.574890137000125,
          6.28851318400018
        ],
        [
          0.579895020000095,
          6.287719727000137
        ],
        [
          0.58312988300014,
          6.286499023000033
        ],
        [
          0.586914062000119,
          6.285522461000085
        ],
        [
          0.589721680000082,
          6.282287598000039
        ],
        [
          0.593322754000155,
          6.284912109000174
        ],
        [
          0.596313477000081,
          6.286926270000151
        ],
        [
          0.598693848000096,
          6.288696289000143
        ],
        [
          0.601501465000183,
          6.29132080100004
        ],
        [
          0.604675293000071,
          6.295898437000062
        ],
        [
          0.609497070000145,
          6.301696777000188
        ],
        [
          0.61352539100011,
          6.305114746000129
        ],
        [
          0.614929199000073,
          6.301696777000188
        ],
        [
          0.615112305000139,
          6.29852294900013
        ],
        [
          0.615112305000139,
          6.294677734000061
        ],
        [
          0.616271973000153,
          6.291076660000158
        ],
        [
          0.618896484000118,
          6.292907715000069
        ],
        [
          0.623718262000125,
          6.295288086000085
        ],
        [
          0.626281738000159,
          6.297119141000167
        ],
        [
          0.628906250000057,
          6.298706055000025
        ],
        [
          0.632690430000139,
          6.300903320000032
        ],
        [
          0.640686035000101,
          6.303710937000062
        ],
        [
          0.644287109000174,
          6.30407714800009
        ],
        [
          0.648071289000086,
          6.304504395000151
        ],
        [
          0.651672363000159,
          6.306518555000025
        ],
        [
          0.655700684000124,
          6.309509277000188
        ],
        [
          0.658081054999968,
          6.311706543000071
        ],
        [
          0.659912109000174,
          6.314697266
        ],
        [
          0.663513184000124,
          6.312927246000129
        ],
        [
          0.666503906000116,
          6.315124512000182
        ],
        [
          0.669311522999976,
          6.315673828000172
        ],
        [
          0.673095703000115,
          6.316528319999975
        ],
        [
          0.675109863000159,
          6.319885254000098
        ],
        [
          0.673889160000101,
          6.323730469
        ],
        [
          0.672485352000137,
          6.326293945000032
        ],
        [
          0.672485352000137,
          6.330322266000167
        ],
        [
          0.67608642600004,
          6.327697754000098
        ],
        [
          0.680297852000137,
          6.325683594000054
        ],
        [
          0.68389892600004,
          6.322875977000024
        ],
        [
          0.686889648000033,
          6.320678711000141
        ],
        [
          0.689086914000086,
          6.317871094000054
        ],
        [
          0.693298340000013,
          6.315124512000182
        ],
        [
          0.695312500000057,
          6.312316895000151
        ],
        [
          0.693481444999975,
          6.309692383000083
        ],
        [
          0.691284180000025,
          6.307495116999974
        ],
        [
          0.687072754000098,
          6.306274414000143
        ],
        [
          0.681884766000167,
          6.307312012000011
        ],
        [
          0.678527832000043,
          6.30407714800009
        ],
        [
          0.677307129000042,
          6.300476074000187
        ],
        [
          0.677490234000174,
          6.296691895000151
        ],
        [
          0.67791748000019,
          6.292114258000026
        ],
        [
          0.680297852000137,
          6.289489746000129
        ],
        [
          0.681518555000139,
          6.285888672000056
        ],
        [
          0.685302734000174,
          6.285095215000069
        ],
        [
          0.687683105000019,
          6.282714844
        ],
        [
          0.689514160000101,
          6.279296875000114
        ],
        [
          0.69110107400013,
          6.276916504000042
        ],
        [
          0.694885254000042,
          6.273681641
        ],
        [
          0.697875976999967,
          6.269287109
        ],
        [
          0.699279785000158,
          6.264526367000087
        ],
        [
          0.699096680000025,
          6.260314941
        ],
        [
          0.699523925999983,
          6.255126953000115
        ],
        [
          0.69891357400013,
          6.24969482400013
        ],
        [
          0.699523925999983,
          6.245727539000086
        ],
        [
          0.700317383000026,
          6.242919922
        ],
        [
          0.702087402000188,
          6.23968505900018
        ],
        [
          0.704284668000071,
          6.236328125000057
        ],
        [
          0.708923340000013,
          6.233276367000144
        ],
        [
          0.707702637000182,
          6.229919434000124
        ],
        [
          0.708923340000013,
          6.226501465000013
        ],
        [
          0.713073730000076,
          6.223510742000087
        ],
        [
          0.716918945000145,
          6.222900391000167
        ],
        [
          0.71710205100004,
          6.218688965000013
        ],
        [
          0.7136840820001,
          6.21649169900013
        ],
        [
          0.714721679999968,
          6.212524414000029
        ],
        [
          0.716308594,
          6.208496094000168
        ],
        [
          0.715698242000144,
          6.204895020000095
        ],
        [
          0.71710205100004,
          6.201110840000183
        ],
        [
          0.718688965000069,
          6.19750976600011
        ],
        [
          0.718688965000069,
          6.193481445000145
        ],
        [
          0.719726562,
          6.18969726600011
        ],
        [
          0.721313477000137,
          6.185729980000133
        ],
        [
          0.720275879000098,
          6.182922363000102
        ],
        [
          0.721130371000072,
          6.179321289000029
        ],
        [
          0.719482422000056,
          6.175903320000145
        ],
        [
          0.720703125000114,
          6.173095703000058
        ],
        [
          0.721679687000062,
          6.169494629000042
        ],
        [
          0.720520020000151,
          6.166503906000116
        ],
        [
          0.720275879000098,
          6.163696289000029
        ],
        [
          0.720703125000114,
          6.159912109000118
        ],
        [
          0.719299316000047,
          6.155090332000043
        ],
        [
          0.721313477000137,
          6.15148925799997
        ],
        [
          0.722717285000101,
          6.147521973000096
        ],
        [
          0.72430419900013,
          6.143920898000147
        ],
        [
          0.724487305000025,
          6.138488770000095
        ],
        [
          0.724487305000025,
          6.134704590000126
        ],
        [
          0.72430419900013,
          6.130676270000095
        ],
        [
          0.722473144999981,
          6.127929687000119
        ],
        [
          0.720520020000151,
          6.125122070000089
        ],
        [
          0.719482422000056,
          6.120483398000147
        ],
        [
          0.723693847999982,
          6.117492676000154
        ],
        [
          0.725280762000011,
          6.114501953000058
        ],
        [
          0.728515625000057,
          6.11071777300009
        ],
        [
          0.730285645000151,
          6.107116699000073
        ],
        [
          0.731689453000115,
          6.103881836000028
        ],
        [
          0.734130859000174,
          6.100524902000075
        ],
        [
          0.73767089800009,
          6.098327637000068
        ],
        [
          0.741271973000039,
          6.095886230000133
        ],
        [
          0.746704101999967,
          6.09289550800014
        ],
        [
          0.74749755900018,
          6.09008789100011
        ],
        [
          0.750915527000188,
          6.087280273000147
        ],
        [
          0.752075195000032,
          6.08288574200003
        ],
        [
          0.752075195000032,
          6.07952880900001
        ],
        [
          0.753479004000098,
          6.075317383000083
        ],
        [
          0.755126953000115,
          6.071716309000067
        ],
        [
          0.7546997070001,
          6.068115234000061
        ],
        [
          0.754089355000076,
          6.064514159999987
        ],
        [
          0.751892090000069,
          6.061706543000128
        ],
        [
          0.751281738000046,
          6.058471680000082
        ],
        [
          0.750671387000068,
          6.054870605000133
        ],
        [
          0.748718262000182,
          6.052673340000126
        ],
        [
          0.747314453000115,
          6.049926758000083
        ],
        [
          0.744079590000069,
          6.047302246000186
        ],
        [
          0.741516113000159,
          6.045471191000104
        ],
        [
          0.738891601999967,
          6.042907715000126
        ],
        [
          0.735900879000098,
          6.03851318400001
        ],
        [
          0.731689453000115,
          6.033508301000097
        ],
        [
          0.731506347999982,
          6.029907227000024
        ],
        [
          0.731506347999982,
          6.026672363000046
        ],
        [
          0.728698730000019,
          6.02429199200003
        ],
        [
          0.72430419900013,
          6.022094727000024
        ],
        [
          0.721679687000062,
          6.019714355000076
        ],
        [
          0.717712402000188,
          6.018310547000112
        ],
        [
          0.714721679999968,
          6.015319824000187
        ],
        [
          0.711486816000047,
          6.014526366999974
        ],
        [
          0.710876465000069,
          6.009704590000069
        ],
        [
          0.70928955100004,
          6.005493164000143
        ],
        [
          0.707702637000182,
          6.001098633000083
        ],
        [
          0.707702637000182,
          5.99749755900001
        ],
        [
          0.705322266000167,
          5.993286133000083
        ],
        [
          0.707275391,
          5.98992919900013
        ],
        [
          0.711914062,
          5.988708496000129
        ],
        [
          0.715881348000039,
          5.986694336000085
        ],
        [
          0.719909668000071,
          5.985473633000083
        ],
        [
          0.724487305000025,
          5.983520508000026
        ],
        [
          0.7293090820001,
          5.9793090820001
        ],
        [
          0.730529785000101,
          5.975708008000083
        ],
        [
          0.734130859000174,
          5.974121094000054
        ],
        [
          0.737487793000128,
          5.971130371000129
        ],
        [
          0.740722656000173,
          5.968872070000032
        ],
        [
          0.745117187000062,
          5.969116211000085
        ],
        [
          0.750488281000173,
          5.968688965000069
        ],
        [
          0.7546997070001,
          5.969116211000085
        ],
        [
          0.756896973000039,
          5.966308594000054
        ],
        [
          0.759887695000032,
          5.962524414000086
        ],
        [
          0.762878418000128,
          5.957275391000053
        ],
        [
          0.766296387000068,
          5.9539184570001
        ],
        [
          0.76507568400001,
          5.950500487999989
        ],
        [
          0.76531982400013,
          5.947509766000167
        ],
        [
          0.76647949200003,
          5.944885254000098
        ],
        [
          0.766723633000026,
          5.942077637000068
        ],
        [
          0.76593017600004,
          5.9382934570001
        ],
        [
          0.763488769999981,
          5.932128906000116
        ],
        [
          0.762084961000085,
          5.927673340000069
        ],
        [
          0.764709473000039,
          5.925109863000159
        ],
        [
          0.768493652000018,
          5.923889160000158
        ],
        [
          0.772521972999982,
          5.924072266
        ],
        [
          0.776306152000018,
          5.92608642600004
        ],
        [
          0.776123047000056,
          5.922485351999967
        ],
        [
          0.779113770000151,
          5.921081543000071
        ],
        [
          0.782470703000172,
          5.918518066
        ],
        [
          0.782897949000187,
          5.915100097999982
        ],
        [
          0.78649902300009,
          5.911926270000095
        ],
        [
          0.787292480000076,
          5.907470703000115
        ],
        [
          0.782714844000054,
          5.904479980000019
        ],
        [
          0.782104491999974,
          5.901672362999989
        ],
        [
          0.782897949000187,
          5.898498535000101
        ],
        [
          0.783325195000032,
          5.893127441000161
        ],
        [
          0.783081055000082,
          5.888671875000114
        ],
        [
          0.784118652000188,
          5.885498047000056
        ],
        [
          0.781311035000158,
          5.882324219000168
        ],
        [
          0.770690918000128,
          5.876525879000042
        ],
        [
          0.766723633000026,
          5.874877930000025
        ],
        [
          0.762695312000062,
          5.873901367000087
        ],
        [
          0.757507324000187,
          5.872924805000139
        ],
        [
          0.752929687000062,
          5.874084473000153
        ],
        [
          0.748901367000144,
          5.876892090000013
        ],
        [
          0.746704101999967,
          5.879272461000085
        ],
        [
          0.740112305000025,
          5.877685547000056
        ],
        [
          0.733276366999974,
          5.875488281000116
        ],
        [
          0.728698730000019,
          5.874328613000102
        ],
        [
          0.725708008000026,
          5.873107910000101
        ],
        [
          0.722473144999981,
          5.872070312000062
        ],
        [
          0.719482422000056,
          5.869873047000056
        ],
        [
          0.718322754000042,
          5.865905762000182
        ],
        [
          0.716918945000145,
          5.862670898000033
        ],
        [
          0.715270996000129,
          5.858886719000168
        ],
        [
          0.712890625000114,
          5.854492187
        ],
        [
          0.7136840820001,
          5.851074219
        ],
        [
          0.713928223000153,
          5.846923828000058
        ],
        [
          0.713073730000076,
          5.843322753999985
        ],
        [
          0.713928223000153,
          5.840515137000125
        ],
        [
          0.712707520000151,
          5.836730957000043
        ],
        [
          0.711486816000047,
          5.832885742000087
        ],
        [
          0.710083008000026,
          5.830078125000057
        ],
        [
          0.71112060500019,
          5.826904297000169
        ],
        [
          0.713317871000072,
          5.822875977000137
        ],
        [
          0.71429443400018,
          5.818481445000145
        ],
        [
          0.716125488000159,
          5.816101074000073
        ],
        [
          0.717529297000056,
          5.810913086000028
        ],
        [
          0.71429443400018,
          5.808288574000073
        ],
        [
          0.711914062,
          5.804687500000057
        ],
        [
          0.710693359,
          5.799499512000125
        ],
        [
          0.711914062,
          5.793518066000104
        ],
        [
          0.714904785000101,
          5.792724609000118
        ],
        [
          0.718078612999989,
          5.791687012000125
        ],
        [
          0.719116211000085,
          5.787902832000043
        ],
        [
          0.719482422000056,
          5.783691406000116
        ],
        [
          0.715698242000144,
          5.782897949000073
        ],
        [
          0.713317871000072,
          5.779724121000186
        ],
        [
          0.713317871000072,
          5.775878906000116
        ],
        [
          0.711213607000047,
          5.773423932000185
        ],
        [
          0.710992216000136,
          5.773401023000133
        ],
        [
          0.707275391,
          5.775878906000116
        ],
        [
          0.704711914000086,
          5.779479980000133
        ],
        [
          0.70147705100004,
          5.777709960999971
        ],
        [
          0.699279785000158,
          5.774719238000046
        ],
        [
          0.695678711000085,
          5.774291992000087
        ],
        [
          0.691894531000173,
          5.776123047000112
        ],
        [
          0.6875,
          5.777099609000118
        ],
        [
          0.685485840000069,
          5.774902344000111
        ],
        [
          0.680725098000153,
          5.775329590000126
        ]
      ]
    ]
  }
}