{
  "type": "FeatureCollection",
  "features": [
    {
      "type": "Feature",
      "properties": {
        "name": "Ablekuma Central Municipal",
        "source": "OCHA COD-AB GHA ADM2"
      },
      "geometry": {
        "type": "Polygon",
        "coordinates": [
          [
            [
              -0.214721679999911,
              5.558715820000145
            ],
            [
              -0.217590331999872,
              5.561279297000056
            ],
            [
              -0.220581054999968,
              5.564514160000101
            ],
            [
              -0.225585937999938,
              5.567504883000026
            ],
            [
              -0.236022948999903,
              5.573303222999982
            ],
            [
              -0.240600585999857,
              5.575317383000026
            ],
            [
              -0.243408202999888,
              5.570129395000095
            ],
            [
              -0.246093749999943,
              5.568115234000174
            ],
            [
              -0.250305175999813,
              5.56671142600004
            ],
            [
              -0.252624511999954,
              5.561279297000056
            ],
            [
              -0.256225585999914,
              5.557495117000144
            ],
            [
              -0.263000487999932,
              5.556884766000167
            ],
            [
              -0.261779784999931,
              5.54852294900013
            ],
            [
              -0.259277343999941,
              5.546875000000114
            ],
            [
              -0.255920409999817,
              5.544921875000057
            ],
            [
              -0.255310058999953,
              5.539916992000087
            ],
            [
              -0.252990722999868,
              5.5379028320001
            ],
            [
              -0.251708983999947,
              5.534301758000026
            ],
            [
              -0.248413085999914,
              5.532287598000153
            ],
            [
              -0.244995116999917,
              5.532104492000087
            ],
            [
              -0.241516112999932,
              5.532104492000087
            ],
            [
              -0.242004394999924,
              5.535278319999975
            ],
            [
              -0.23352050799997,
              5.536682129000042
            ],
            [
              -0.234008788999972,
              5.542297363000159
            ],
            [
              -0.229492187999938,
              5.544128418000014
            ],
            [
              -0.226684569999975,
              5.54327392600004
            ],
            [
              -0.222717284999874,
              5.542907715000013
            ],
            [
              -0.223876952999831,
              5.546508789000086
            ],
            [
              -0.222717284999874,
              5.549682617000144
            ],
            [
              -0.220581054999968,
              5.553527832000043
            ],
            [
              -0.217712401999961,
              5.556518554999968
            ],
            [
              -0.214721679999911,
              5.558715820000145
            ]
          ]
        ]
      }
    },
    {
      "type": "Feature",
      "properties": {
        "name": "Ablekuma North Municipal",
        "source": "OCHA COD-AB GHA ADM2"
      },
      "geometry": {
        "type": "Polygon",
        "coordinates": [
          [
            [
              -0.215820312999881,
              5.603271484000061
            ],
            [
              -0.219421386999954,
              5.603515625000114
            ],
            [
              -0.223876952999831,
              5.600280762000068
            ],
            [
              -0.230102538999972,
              5.595275879000098
            ],
            [
              -0.237609862999932,
              5.595092773000033
            ],
            [
              -0.245178222999868,
              5.595520020000151
            ],
            [
              -0.247619628999928,
              5.603271484000061
            ],
            [
              -0.256225585999914,
              5.600280762000068
            ],
            [
              -0.258300780999946,
              5.603698730000076
            ],
            [
              -0.259521483999947,
              5.60772705100004
            ],
            [
              -0.264709472999868,
              5.608520508000026
            ],
            [
              -0.267517089999899,
              5.605895996000129
            ],
            [
              -0.268188476999967,
              5.603088379000098
            ],
            [
              -0.269714354999905,
              5.600524902000188
            ],
            [
              -0.271118163999972,
              5.597900391000167
            ],
            [
              -0.273010253999928,
              5.595275879000098
            ],
            [
              -0.274902343999884,
              5.592895508000026
            ],
            [
              -0.278808593999884,
              5.589721679999968
            ],
            [
              -0.281677245999958,
              5.5867309570001
            ],
            [
              -0.282592772999919,
              5.582275391
            ],
            [
              -0.281616210999971,
              5.578125
            ],
            [
              -0.280578612999875,
              5.573303222999982
            ],
            [
              -0.276184081999929,
              5.569885254000098
            ],
            [
              -0.275024413999972,
              5.567077637000011
            ],
            [
              -0.278015136999954,
              5.563110352000137
            ],
            [
              -0.278076171999942,
              5.559875487999989
            ],
            [
              -0.276428222999925,
              5.556518554999968
            ],
            [
              -0.276916503999928,
              5.552490234000174
            ],
            [
              -0.26928710899989,
              5.555908203000115
            ],
            [
              -0.263000487999932,
              5.556884766000167
            ],
            [
              -0.256225585999914,
              5.557495117000144
            ],
            [
              -0.252624511999954,
              5.561279297000056
            ],
            [
              -0.250305175999813,
              5.56671142600004
            ],
            [
              -0.246093749999943,
              5.568115234000174
            ],
            [
              -0.243408202999888,
              5.570129395000095
            ],
            [
              -0.240600585999857,
              5.575317383000026
            ],
            [
              -0.236022948999903,
              5.573303222999982
            ],
            [
              -0.225585937999938,
              5.567504883000026
            ],
            [
              -0.220581054999968,
              5.564514160000101
            ],
            [
              -0.217590331999872,
              5.561279297000056
            ],
            [
              -0.214721679999911,
              5.558715820000145
            ],
            [
              -0.21350097699991,
              5.563110352000137
            ],
            [
              -0.213806151999961,
              5.567077637000011
            ],
            [
              -0.214721679999911,
              5.571289062000062
            ],
            [
              -0.211120604999962,
              5.572509766000167
            ],
            [
              -0.211425780999889,
              5.576904297000056
            ],
            [
              -0.211975097999868,
              5.581909180000025
            ],
            [
              -0.211120604999962,
              5.587524414000086
            ],
            [
              -0.21319580099987,
              5.593078612999989
            ],
            [
              -0.215576171999942,
              5.597900391000167
            ],
            [
              -0.215820312999881,
              5.603271484000061
            ]
          ]
        ]
      }
    },
    {
      "type": "Feature",
      "properties": {
        "name": "Ablekuma West Municipal",
        "source": "OCHA COD-AB GHA ADM2"
      },
      "geometry": {
        "type": "Polygon",
        "coordinates": [
          [
            [
              -0.222717284999874,
              5.542907715000013
            ],
            [
              -0.226684569999975,
              5.54327392600004
            ],
            [
              -0.229492187999938,
              5.544128418000014
            ],
            [
              -0.234008788999972,
              5.542297363000159
            ],
            [
              -0.23352050799997,
              5.536682129000042
            ],
            [
              -0.242004394999924,
              5.535278319999975
            ],
            [
              -0.241516112999932,
              5.532104492000087
            ],
            [
              -0.244995116999917,
              5.532104492000087
            ],
            [
              -0.248413085999914,
              5.532287598000153
            ],
            [
              -0.251708983999947,
              5.534301758000026
            ],
            [
              -0.252990722999868,
              5.5379028320001
            ],
            [
              -0.255310058999953,
              5.539916992000087
            ],
            [
              -0.255920409999817,
              5.544921875000057
            ],
            [
              -0.259277343999941,
              5.546875000000114
            ],
            [
              -0.261779784999931,
              5.54852294900013
            ],
            [
              -0.263000487999932,
              5.556884766000167
            ],
            [
              -0.26928710899989,
              5.555908203000115
            ],
            [
              -0.276916503999928,
              5.552490234000174
            ],
            [
              -0.275878905999889,
              5.549316406000116
            ],
            [
              -0.273315429999968,
              5.545898437
            ],
            [
              -0.271606444999975,
              5.541503906000116
            ],
            [
              -0.272094726999967,
              5.538513184000124
            ],
            [
              -0.273498534999931,
              5.535888672000056
            ],
            [
              -0.275390624999886,
              5.53289794900013
            ],
            [
              -0.277893065999933,
              5.529907227000137
            ],
            [
              -0.277893065999933,
              5.524902344000168
            ],
            [
              -0.27429199199986,
              5.524475097999982
            ],
            [
              -0.271301269999924,
              5.519287109000174
            ],
            [
              -0.26672363299997,
              5.520080566
            ],
            [
              -0.263610839999899,
              5.520690918000071
            ],
            [
              -0.258178710999971,
              5.521911621000072
            ],
            [
              -0.254089354999905,
              5.522888184000124
            ],
            [
              -0.250488280999946,
              5.523681641000167
            ],
            [
              -0.246398925999927,
              5.524291992000144
            ],
            [
              -0.243408202999888,
              5.524902344000168
            ],
            [
              -0.240112304999968,
              5.525512695000145
            ],
            [
              -0.236328124999943,
              5.526123047
            ],
            [
              -0.232910155999946,
              5.526916504000042
            ],
            [
              -0.229919433999896,
              5.527893066
            ],
            [
              -0.225891112999932,
              5.529113770000095
            ],
            [
              -0.220581054999968,
              5.530517578000058
            ],
            [
              -0.218017577999944,
              5.534912109000174
            ],
            [
              -0.218505858999947,
              5.539489746000129
            ],
            [
              -0.222106933999839,
              5.539916992000087
            ],
            [
              -0.222717284999874,
              5.542907715000013
            ]
          ]
        ]
      }
    },
    {
      "type": "Feature",
      "properties": {
        "name": "Accra Metropolis",
        "source": "OCHA COD-AB GHA ADM2"
      },
      "geometry": {
        "type": "Polygon",
        "coordinates": [
          [
            [
              -0.197021483999947,
              5.544921875000057
            ],
            [
              -0.200622558999896,
              5.550109863000159
            ],
            [
              -0.201721190999933,
              5.554870605000076
            ],
            [
              -0.203979491999917,
              5.55828857400013
            ],
            [
              -0.206787108999947,
              5.557495117000144
            ],
            [
              -0.210693358999947,
              5.557922363000159
            ],
            [
              -0.214721679999911,
              5.558715820000145
            ],
            [
              -0.217712401999961,
              5.556518554999968
            ],
            [
              -0.220581054999968,
              5.553527832000043
            ],
            [
              -0.222717284999874,
              5.549682617000144
            ],
            [
              -0.223876952999831,
              5.546508789000086
            ],
            [
              -0.222717284999874,
              5.542907715000013
            ],
            [
              -0.222106933999839,
              5.539916992000087
            ],
            [
              -0.218505858999947,
              5.539489746000129
            ],
            [
              -0.218017577999944,
              5.534912109000174
            ],
            [
              -0.220581054999968,
              5.530517578000058
            ],
            [
              -0.215576171999942,
              5.531677246000129
            ],
            [
              -0.212280272999976,
              5.532470703000115
            ],
            [
              -0.208923339999956,
              5.533508300999983
            ],
            [
              -0.208496093999884,
              5.53729248000019
            ],
            [
              -0.205627440999933,
              5.540283203000115
            ],
            [
              -0.201904296999885,
              5.542297363000159
            ],
            [
              -0.197021483999947,
              5.544921875000057
            ]
          ]
        ]
      }
    },
    {
      "type": "Feature",
      "properties": {
        "name": "Ayawaso Central Municipal",
        "source": "OCHA COD-AB GHA ADM2"
      },
      "geometry": {
        "type": "Polygon",
        "coordinates": [
          [
            [
              -0.199707030999889,
              5.575073241999974
            ],
            [
              -0.198608397999976,
              5.578491211000085
            ],
            [
              -0.197692870999958,
              5.582702637000182
            ],
            [
              -0.199890136999954,
              5.586303711000085
            ],
            [
              -0.203308104999962,
              5.588073730000076
            ],
            [
              -0.207824706999929,
              5.580505371000129
            ],
            [
              -0.211425780999889,
              5.576904297000056
            ],
            [
              -0.211120604999962,
              5.572509766000167
            ],
            [
              -0.205505370999958,
              5.57391357400013
            ],
            [
              -0.199707030999889,
              5.575073241999974
            ]
          ]
        ]
      }
    },
    {
      "type": "Feature",
      "properties": {
        "name": "Korle Klottey Municipal",
        "source": "OCHA COD-AB GHA ADM2"
      },
      "geometry": {
        "type": "Polygon",
        "coordinates": [
          [
            [
              -0.190307616999974,
              5.572082520000151
            ],
            [
              -0.195129394999867,
              5.575683594000054
            ],
            [
              -0.199707030999889,
              5.575073241999974
            ],
            [
              -0.205505370999958,
              5.57391357400013
            ],
            [
              -0.211120604999962,
              5.572509766000167
            ],
            [
              -0.214721679999911,
              5.571289062000062
            ],
            [
              -0.213806151999961,
              5.567077637000011
            ],
            [
              -0.21350097699991,
              5.563110352000137
            ],
            [
              -0.214721679999911,
              5.558715820000145
            ],
            [
              -0.210693358999947,
              5.557922363000159
            ],
            [
              -0.206787108999947,
              5.557495117000144
            ],
            [
              -0.203979491999917,
              5.55828857400013
            ],
            [
              -0.201721190999933,
              5.554870605000076
            ],
            [
              -0.200622558999896,
              5.550109863000159
            ],
            [
              -0.197021483999947,
              5.544921875000057
            ],
            [
              -0.192077636999954,
              5.544494629000042
            ],
            [
              -0.189208983999947,
              5.54510498000019
            ],
            [
              -0.186279296999828,
              5.545715332000043
            ],
            [
              -0.182312011999954,
              5.546875000000114
            ],
            [
              -0.179199218999941,
              5.548706054999968
            ],
            [
              -0.175109862999818,
              5.549682617000144
            ],
            [
              -0.175292968999941,
              5.552673340000069
            ],
            [
              -0.177307128999871,
              5.55609130900018
            ],
            [
              -0.177978515999939,
              5.559875487999989
            ],
            [
              -0.177490233999947,
              5.563903809000124
            ],
            [
              -0.190307616999974,
              5.572082520000151
            ]
          ]
        ]
      }
    }
  ]
}