{
"type": "FeatureCollection",
"name": "pilot_district_boundary",
"crs": { "type": "name", "properties": { "name": "urn:ogc:def:crs:OGC:1.3:CRS84" } },
"features": [
{ "type": "Feature", "properties": { "name": "ThirdWave Pilot District (union)" }, "geometry": { "type": "Polygon", "coordinates": [ [ [ -0.201904296999885, 5.542297363000159 ], [ -0.205627440999933, 5.540283203000115 ], [ -0.208496093999884, 5.53729248000019 ], [ -0.208923339999956, 5.533508300999983 ], [ -0.212280272999976, 5.532470703000115 ], [ -0.215576171999942, 5.531677246000129 ], [ -0.220581054999968, 5.530517578000058 ], [ -0.225891112999932, 5.529113770000095 ], [ -0.229919433999896, 5.527893066 ], [ -0.232910155999946, 5.526916504000042 ], [ -0.236328124999943, 5.526123047 ], [ -0.240112304999968, 5.525512695000145 ], [ -0.243408202999888, 5.524902344000168 ], [ -0.246398925999927, 5.524291992000144 ], [ -0.250488280999946, 5.523681641000167 ], [ -0.254089354999905, 5.522888184000124 ], [ -0.258178710999971, 5.521911621000072 ], [ -0.263610839999899, 5.520690918000071 ], [ -0.26672363299997, 5.520080566 ], [ -0.271301269999924, 5.519287109000174 ], [ -0.281616210999971, 5.51672363299997 ], [ -0.291687011999898, 5.514892578000115 ], [ -0.306884765999882, 5.511291504000042 ], [ -0.323181151999847, 5.506896973000153 ], [ -0.337402343999941, 5.503479004000042 ], [ -0.344482421999885, 5.502075195000145 ], [ -0.352478026999961, 5.497924805000139 ], [ -0.358398437999881, 5.497680664000086 ], [ -0.36700439499981, 5.493713378999985 ], [ -0.371582030999946, 5.488891602000137 ], [ -0.38000488299997, 5.485900879000042 ], [ -0.389404296999885, 5.47869873000019 ], [ -0.399108886999954, 5.474914551000154 ], [ -0.405883788999972, 5.469726562000119 ], [ -0.406311034999874, 5.474670410000101 ], [ -0.405578612999875, 5.479492187000176 ], [ -0.402709960999914, 5.482727051000154 ], [ -0.401123046999885, 5.486328125 ], [ -0.402404784999817, 5.489685059000124 ], [ -0.403686522999976, 5.492492675999983 ], [ -0.403320312999881, 5.496887207000043 ], [ -0.404174804999968, 5.501098633000026 ], [ -0.404296874999943, 5.50408935500019 ], [ -0.404113769999924, 5.507873535000101 ], [ -0.404724120999958, 5.511291504000042 ], [ -0.405395507999913, 5.514526367000087 ], [ -0.407775878999928, 5.518127441000161 ], [ -0.410278319999975, 5.52172851600011 ], [ -0.412597655999946, 5.524291992000144 ], [ -0.41320800799997, 5.527709961000028 ], [ -0.414611815999876, 5.532470703000115 ], [ -0.415405272999976, 5.5379028320001 ], [ -0.414794921999942, 5.541320800999983 ], [ -0.414428710999914, 5.544494629000042 ], [ -0.413085937999938, 5.54827880900018 ], [ -0.412109374999943, 5.552124022999976 ], [ -0.410278319999975, 5.556518554999968 ], [ -0.406921386999954, 5.559509277000188 ], [ -0.403015136999954, 5.5625 ], [ -0.400817870999958, 5.566894531000173 ], [ -0.402709960999914, 5.569702148000033 ], [ -0.405395507999913, 5.572326660000101 ], [ -0.406127929999911, 5.57647705100004 ], [ -0.407775878999928, 5.580322266000167 ], [ -0.409912108999947, 5.582885742000144 ], [ -0.41320800799997, 5.586486816000047 ], [ -0.415710448999903, 5.5886840820001 ], [ -0.417297362999932, 5.592529297000056 ], [ -0.419128417999843, 5.595703125000114 ], [ -0.422424315999876, 5.59930419900013 ], [ -0.424987792999957, 5.602294922000056 ], [ -0.427612304999968, 5.605102539000143 ], [ -0.418518065999876, 5.607482910000158 ], [ -0.41192626999981, 5.608276366999974 ], [ -0.397521972999925, 5.61267089800009 ], [ -0.389709472999925, 5.60711669900013 ], [ -0.375427245999958, 5.60711669900013 ], [ -0.369995116999974, 5.606689453000172 ], [ -0.366699218999941, 5.60491943400018 ], [ -0.359497069999918, 5.606689453000172 ], [ -0.361328124999886, 5.600097656000173 ], [ -0.362792968999941, 5.597473144999981 ], [ -0.355224608999833, 5.592285156000173 ], [ -0.356384276999961, 5.588073730000076 ], [ -0.353881835999914, 5.58612060500019 ], [ -0.350585937999881, 5.583923340000013 ], [ -0.346679687999881, 5.585327148000033 ], [ -0.344604491999974, 5.588073730000076 ], [ -0.347717284999931, 5.589111328000115 ], [ -0.345581054999968, 5.591918944999975 ], [ -0.343994140999939, 5.594482422000056 ], [ -0.3449096679999, 5.597473144999981 ], [ -0.343017577999944, 5.601074219000054 ], [ -0.339294433999896, 5.599487305000025 ], [ -0.336486815999933, 5.602722168000071 ], [ -0.333312987999875, 5.601501465000069 ], [ -0.327209472999925, 5.599670410000158 ], [ -0.32000732399996, 5.601074219000054 ], [ -0.316406249999886, 5.602111816000047 ], [ -0.311401366999974, 5.602722168000071 ], [ -0.306823729999905, 5.601074219000054 ], [ -0.303710937999938, 5.597717285000101 ], [ -0.302917479999905, 5.591308594 ], [ -0.299926757999913, 5.591125488000159 ], [ -0.299804687999938, 5.5867309570001 ], [ -0.294799804999968, 5.585510254000042 ], [ -0.290588378999871, 5.585510254000042 ], [ -0.285583495999845, 5.585693359 ], [ -0.284484862999875, 5.579101562000062 ], [ -0.281616210999971, 5.578125 ], [ -0.282592772999919, 5.582275391 ], [ -0.281677245999958, 5.5867309570001 ], [ -0.278808593999884, 5.589721679999968 ], [ -0.274902343999884, 5.592895508000026 ], [ -0.273010253999928, 5.595275879000098 ], [ -0.271118163999972, 5.597900391000167 ], [ -0.269714354999905, 5.600524902000188 ], [ -0.268188476999967, 5.603088379000098 ], [ -0.267517089999899, 5.605895996000129 ], [ -0.264709472999868, 5.608520508000026 ], [ -0.259521483999947, 5.60772705100004 ], [ -0.258300780999946, 5.603698730000076 ], [ -0.256225585999914, 5.600280762000068 ], [ -0.247619628999928, 5.603271484000061 ], [ -0.245178222999868, 5.595520020000151 ], [ -0.237609862999932, 5.595092773000033 ], [ -0.230102538999972, 5.595275879000098 ], [ -0.223876952999831, 5.600280762000068 ], [ -0.219421386999954, 5.603515625000114 ], [ -0.215820312999881, 5.603271484000061 ], [ -0.215576171999942, 5.597900391000167 ], [ -0.21319580099987, 5.593078612999989 ], [ -0.211120604999962, 5.587524414000086 ], [ -0.211975097999868, 5.581909180000025 ], [ -0.211425780999889, 5.576904297000056 ], [ -0.207824706999929, 5.580505371000129 ], [ -0.203308104999962, 5.588073730000076 ], [ -0.199890136999954, 5.586303711000085 ], [ -0.197692870999958, 5.582702637000182 ], [ -0.198608397999976, 5.578491211000085 ], [ -0.199707030999889, 5.575073241999974 ], [ -0.195129394999867, 5.575683594000054 ], [ -0.190307616999974, 5.572082520000151 ], [ -0.177490233999947, 5.563903809000124 ], [ -0.177978515999939, 5.559875487999989 ], [ -0.177307128999871, 5.55609130900018 ], [ -0.175292968999941, 5.552673340000069 ], [ -0.175109862999818, 5.549682617000144 ], [ -0.179199218999941, 5.548706054999968 ], [ -0.182312011999954, 5.546875000000114 ], [ -0.186279296999828, 5.545715332000043 ], [ -0.189208983999947, 5.54510498000019 ], [ -0.192077636999954, 5.544494629000042 ], [ -0.197021483999947, 5.544921875000057 ], [ -0.201904296999885, 5.542297363000159 ] ] ] } }
]
}
